id,company_name,street,street_number,postal_code,city,country,latitude,longitude,email
1,Twitterbridge,715 7th Crossing,66726,3449,Woerden,NL,52.0825062,4.8461786,noxtaby0@archive.org
2,Rhyzio,56 Gina Avenue,0,5244,Rosmalen,NL,51.7153134,5.397367,adigginson1@github.com
3,Voolith,0535 Bluestem Crossing,87,4334,Middelburg,NL,51.5101547,3.5898423,dethridge2@fda.gov
4,Browsedrive,535 Bluestem Point,47,7824,Emmen,NL,52.781689,6.9347107,nalmack3@geocities.jp
5,Thoughtmix,21 Upham Way,05,8214,Lelystad,NL,52.5077777,5.4757709,pklementz4@exblog.jp
6,Yombu,0432 Lotheville Lane,243,7554,Hengelo,NL,52.222516,6.7371965,rwitherop5@hugedomains.com
7,Katz,23168 Bunting Crossing,759,5204,'s-Hertogenbosch,NL,51.6861013,5.2933198,lsenogles6@huffingtonpost.com
8,Skinix,43 Russell Crossing,749,3104,Schiedam postbusnummers,NL,51.883,4.3577,sferguson7@com.com
9,Blognation,7 Quincy Court,5540,3805,Amersfoort,NL,52.1894953,5.3961917,agoldbourn8@ucla.edu
10,Ailane,9 Marcy Place,4182,4829,Breda,NL,52.3738284,4.8886159,dlinwood9@china.com.cn
11,Divape,36 Redwing Way,47465,2284,Rijswijk,NL,52.0393765,4.3161176,sraecrofta@t.co
12,Mybuzz,128 Roth Junction,33,1069,Amsterdam Nieuw West,NL,52.3576375,4.7901227,jwelburnb@uiuc.edu
13,Riffpath,65603 Gina Trail,32,2019,Haarlem,NL,52.3811357,4.6419648,pthurbonc@dot.gov
14,Quatz,137 Everett Avenue,715,6844,Arnhem,NL,51.9489686,5.8564699,ncruxd@nsw.gov.au
15,Quatz,79 Nelson Plaza,3843,5629,Eindhoven,NL,51.490189,5.4711208,aborzonie@google.com
16,Dabfeed,8303 Nova Avenue,8,1964,Heemskerk,NL,52.5124538,4.6573346,rhuckellf@discuz.net
17,Leenti,8 Armistice Avenue,03519,1069,Amsterdam Nieuw West,NL,52.3576375,4.7901227,ulaurenting@hexun.com
18,Flashdog,7447 Manitowish Center,00,3009,Rotterdam postbusnummers,NL,51.8796,4.5059,rgeekieh@seesaa.net
19,Zoonder,76 Mayer Lane,5,2720,Zoetermeer,NL,52.0625106,4.4911369,pspicketti@microsoft.com
20,Reallinks,6076 Morningstar Drive,17,6529,Nijmegen,NL,51.8417492,5.8715134,bhudspethj@friendfeed.com
21,Gigashots,5899 Bobwhite Drive,38462,5224,'s-Hertogenbosch,NL,51.6991519,5.2583334,kmedcalfek@usa.gov
22,Skajo,44 Red Cloud Plaza,67487,2578,Den Haag,NL,51.5190765,5.9202663,cdowdingl@technorati.com
23,Zazio,8 Center Pass,63379,1819,Alkmaar,NL,52.6435136,4.7270746,ncarlanm@joomla.org
24,Browseblab,16 Quincy Park,8,2334,Leiden,NL,52.1701159,4.4833003,agullyesn@friendfeed.com
25,Cogilith,2 Bayside Crossing,12988,2004,Haarlem,NL,52.3626877,4.6195236,afennellyo@flavors.me
26,Gevee,483 Esker Plaza,90,1814,Alkmaar,NL,52.6201537,4.7406288,coheynep@shop-pro.jp
27,Blogspan,2 Brown Street,113,3709,Zeist,NL,52.066952,5.2407431,asennettq@ucoz.com
28,Skippad,31 Scofield Alley,0842,8019,Zwolle,NL,52.5019685,6.0684306,eremnantr@over-blog.com
29,Buzzdog,3 Bultman Road,43625,7504,Enschede,NL,52.211713,6.8954592,mkments@admin.ch
30,Skajo,602 Buena Vista Street,415,3224,Hellevoetsluis,NL,51.8281611,4.1481143,bpetrosiant@wordpress.org
31,Digitube,74 Farwell Pass,82080,2409,Alphen aan den Rijn,NL,52.1024489,4.6477615,bchaliceu@wikia.com
32,Gigabox,6 Debs Court,01099,1509,Zaandam,NL,52.4709411,4.826445,lbucknallv@google.com.hk
33,DabZ,8319 Manitowish Avenue,865,1354,Almere Haven,NL,52.3382178,5.2172366,ecullinanw@theatlantic.com
34,Rhynyx,92 East Street,724,4334,Middelburg,NL,51.5101547,3.5898423,freginax@google.pl
35,Youspan,64458 Monterey Street,0384,9674,Winschoten,NL,53.1250118,7.0114962,mdummigany@soundcloud.com
36,Meembee,60 Talmadge Place,26129,4819,Breda,NL,51.5749006,4.7680893,bspurgeonz@cbc.ca
37,Kazu,64156 Esch Terrace,39,1819,Alkmaar,NL,52.6435136,4.7270746,dwaszczyk10@thetimes.co.uk
38,Thoughtstorm,59 Brickson Park Place,08755,6519,Nijmegen,NL,51.8417492,5.8715134,jogriffin11@jimdo.com
39,Jabbersphere,111 Holmberg Crossing,6,4534,Terneuzen,NL,52.359151,5.1999127,ajonson12@trellian.com
40,Fiveclub,1 Columbus Street,0,2495,Den Haag,NL,52.0563021,4.3610449,ddebeneditti13@chron.com
41,Camimbo,5567 Eastwood Lane,75245,6224,Maastricht,NL,50.8493216,5.7114171,jsharple14@yellowbook.com
42,Mynte,4 Cordelia Parkway,29,8904,Leeuwarden,NL,53.2012042,5.8112912,lduligall15@360.cn
43,Yata,676 Main Parkway,4,6824,Arnhem,NL,51.9913857,5.9372731,kromeril16@europa.eu
44,Brightdog,5671 Doe Crossing Alley,50,2228,Katwijk,NL,51.8891035,5.9269366,cstopforth17@auda.org.au
45,Leexo,2710 Eliot Pass,41,1974,IJmuiden,NL,52.4500648,4.5789114,bbeese18@slate.com
46,Jabbertype,7881 Mesta Way,3,2989,Ridderkerk,NL,51.8530202,4.6175276,mshepherd19@blogs.com
47,Divape,415 Buena Vista Court,4452,6904,Zevenaar,NL,51.9321156,6.0581861,bserridge1a@liveinternet.ru
48,Zoomcast,45010 American Lane,873,3309,Dordrecht,NL,51.7783026,4.693265,bmettrick1b@time.com
49,Zoovu,1 Blackbird Plaza,694,7319,Apeldoorn,NL,52.2313764,5.9938487,vdalgetty1c@ucsd.edu
50,Skinder,2000 Reinke Avenue,9692,2495,Den Haag,NL,52.0563021,4.3610449,ffarquhar1d@psu.edu
51,Browsebug,39758 Hintze Road,73,1209,Hilversum,NL,52.2239735,5.1704277,dchanning1e@joomla.org
52,Wikizz,7430 Hudson Trail,3,3109,Schiedam postbusnummers,NL,51.883,4.3577,mchatelet1f@smh.com.au
53,Devbug,091 Clarendon Avenue,146,2409,Alphen aan den Rijn,NL,52.1024489,4.6477615,nmccorley1g@auda.org.au
54,Yacero,32 Swallow Place,09,2004,Haarlem,NL,52.3626877,4.6195236,sgritten1h@sourceforge.net
55,Zoomcast,96 Mosinee Drive,68,6214,Maastricht,NL,50.8446443,5.6735818,ntanswill1i@lulu.com
56,Katz,682 Victoria Place,0412,1624,Hoorn,NL,52.6472404,5.0570439,tstorm1j@imdb.com
57,Kwimbee,09616 Green Ridge Alley,387,7524,Enschede,NL,52.2608863,6.9041984,domonahan1k@symantec.com
58,Voonix,8503 Atwood Alley,6351,4534,Terneuzen,NL,52.359151,5.1999127,tbatchellor1l@eventbrite.com
59,Jaxbean,750 Haas Trail,2,6844,Arnhem,NL,51.9489686,5.8564699,oblackaby1m@privacy.gov.au
60,Vimbo,87 Sycamore Hill,4,7524,Enschede,NL,52.2608863,6.9041984,ecottom1n@i2i.jp
61,Skynoodle,427 Declaration Street,50,1624,Hoorn,NL,52.6472404,5.0570439,dhaking1o@unc.edu
62,Wordpedia,639 Marquette Road,32705,6814,Arnhem,NL,51.9877935,5.9030863,cmilborn1p@berkeley.edu
63,Voolith,2395 Veith Lane,1645,7554,Hengelo,NL,52.222516,6.7371965,sference1q@behance.net
64,Voonix,5235 Sherman Center,7212,2334,Leiden,NL,52.1701159,4.4833003,bkoppke1r@ameblo.jp
65,Buzzdog,3 Sauthoff Alley,017,6714,Ede,NL,52.0442252,5.6463088,jatack1s@lulu.com
66,Ooba,806 Jenifer Place,56,5144,Waalwijk,NL,51.6773339,5.0633742,aguite1t@virginia.edu
67,Devify,182 Brown Crossing,69709,3324,Dordrecht,NL,51.7783026,4.693265,mblay1u@paypal.com
68,Tazzy,30 Pawling Avenue,709,2309,Leiden,NL,52.1513886,4.4982869,ashaudfurth1v@nytimes.com
69,Brightbean,4003 Dottie Avenue,10987,2924,Krimpen aan den IJssel,NL,51.924574,4.616419,rconnah1w@studiopress.com
70,Realpoint,996 Alpine Court,9,1504,Zaandam,NL,52.435251,4.8501344,tfancourt1x@fc2.com
71,Trunyx,8457 Moose Way,88,3764,Soest,NL,52.1861944,5.3099089,tvonwelldun1y@uiuc.edu
72,Tavu,52 Petterle Plaza,0,1304,Almere Stad,NL,52.3670698,5.2156739,efrankton1z@facebook.com
73,Tazzy,0 Ridgeway Alley,66,3502,Utrecht (stad),NL,52.08234,5.1175293,nparham20@amazon.co.jp
74,Skyba,81 Judy Road,15,2274,Voorburg,NL,52.0726169,4.3505874,hendicott21@dell.com
75,Twitterwire,3 Stoughton Pass,9447,3224,Hellevoetsluis,NL,51.8281611,4.1481143,tosgarby22@icio.us
76,Tagcat,1 Everett Center,8,5214,'s-Hertogenbosch,NL,51.6861013,5.2933198,frisebarer23@loc.gov
77,Quaxo,0 Mendota Drive,28570,4829,Breda,NL,52.3738284,4.8886159,kpenwright24@patch.com
78,Centizu,5 Barnett Hill,3843,6519,Nijmegen,NL,51.8417492,5.8715134,wbatcheldor25@t.co
79,Blognation,8737 Warner Place,359,2604,Delft,NL,51.9998397,4.3399875,sravillas26@shop-pro.jp
80,Reallinks,3801 Erie Avenue,98,1069,Amsterdam Nieuw West,NL,52.3576375,4.7901227,jsuart27@ft.com
81,Tanoodle,78 Drewry Point,3171,1039,Amsterdam Noord west,NL,52.331282,4.93136,llawrinson28@biblegateway.com
82,Trilia,7839 Nancy Hill,00,3709,Zeist,NL,52.066952,5.2407431,nfuggle29@bbb.org
83,Twitterwire,5346 Monument Avenue,8,7604,Almelo,NL,52.3517146,6.624795,nbulfoy2a@spotify.com
84,Shuffletag,0 Amoth Drive,85810,7804,Emmen,NL,52.7843212,6.8915145,epeaker2b@networksolutions.com
85,Eayo,0 Hallows Point,2,3502,Utrecht (stad),NL,52.08234,5.1175293,tdomange2c@mashable.com
86,Tagpad,2374 Linden Terrace,27,5204,'s-Hertogenbosch,NL,51.6861013,5.2933198,lmatts2d@trellian.com
87,Reallinks,8176 Village Avenue,7,2304,Leiden,NL,52.1513886,4.4982869,wgrinaway2e@comsenz.com
88,Ailane,6 Butternut Park,1,5249,Rosmalen,NL,51.7286846,5.4008695,mhaygreen2f@macromedia.com
89,Youfeed,67102 Starling Plaza,13,8934,Leeuwarden,NL,53.1913133,5.8065627,bgegay2g@dailymotion.com
90,InnoZ,1 Esker Junction,52,8214,Lelystad,NL,52.5077777,5.4757709,ndunmuir2h@discuz.net
91,Brainsphere,61661 Schmedeman Place,3825,1624,Hoorn,NL,52.6472404,5.0570439,gbentson2i@furl.net
92,Skimia,3 Raven Center,45933,7504,Enschede,NL,52.211713,6.8954592,hkhristyukhin2j@hao123.com
93,Devshare,66692 Waxwing Alley,37540,1964,Heemskerk,NL,52.5124538,4.6573346,crishman2k@etsy.com
94,Skalith,416 Eagan Way,7750,2989,Ridderkerk,NL,51.8530202,4.6175276,ewinny2l@nationalgeographic.com
95,Divape,95 Straubel Terrace,74,6519,Nijmegen,NL,51.8417492,5.8715134,fdowding2m@google.es
96,Mydo,08 Heffernan Circle,674,2304,Leiden,NL,52.1513886,4.4982869,alicari2n@ovh.net
97,Kare,6106 Southridge Hill,54867,3109,Schiedam postbusnummers,NL,51.883,4.3577,mfray2o@indiatimes.com
98,Voonix,807 Carioca Parkway,5124,1079,Amsterdam Oud Zuid en Rivierenbuurt,NL,52.3444367,4.9091171,njeenes2p@marriott.com
99,Tagopia,22418 Aberg Crossing,152,7909,Hoogeveen,NL,52.7140571,6.4183299,rvanderbrug2q@unc.edu
100,Oba,890 Porter Place,0,5629,Eindhoven,NL,51.490189,5.4711208,fofielly2r@npr.org
101,Bluezoom,614 Schurz Court,7411,1964,Heemskerk,NL,52.5124538,4.6573346,mburley2s@facebook.com
102,Lazz,33 Kedzie Drive,9849,1974,IJmuiden,NL,52.4500648,4.5789114,lmethingam2t@surveymonkey.com
103,Quatz,3 Bunker Hill Center,51693,4609,Bergen op Zoom,NL,51.5004971,4.2864439,atrillow2u@jigsy.com
104,Kazio,90729 Linden Alley,40411,2989,Ridderkerk,NL,51.8530202,4.6175276,agrzegorczyk2v@eepurl.com
105,Podcat,6 Saint Paul Place,072,1039,Amsterdam Noord west,NL,52.331282,4.93136,mdmtrovic2w@domainmarket.com
106,Trudoo,70 Sloan Hill,9,9204,Drachten,NL,53.0985458,6.0694,famaya2x@dion.ne.jp
107,Camimbo,9984 Bluestem Center,32,3844,Harderwijk,NL,52.3376849,5.6072982,niglesia2y@woothemes.com
108,Edgewire,63616 Cottonwood Alley,45,5204,'s-Hertogenbosch,NL,51.6861013,5.2933198,aellard2z@si.edu
109,Meeveo,3 Larry Center,2588,1304,Almere Stad,NL,52.3670698,5.2156739,cmaccrackan30@pinterest.com
110,InnoZ,367 Maryland Lane,72,4619,Bergen op Zoom,NL,51.5004971,4.2864439,jdenys31@wiley.com
111,Kwinu,197 Debs Trail,82,1019,Amsterdam Binnenstad en Oostelijk Havengebied,NL,52.3770271,4.9192294,bmaisey32@so-net.ne.jp
112,Rhycero,02 Elgar Center,639,6834,Arnhem,NL,51.9560027,5.9280255,mchristofle33@addtoany.com
113,Thoughtsphere,5 Northview Road,3,2409,Alphen aan den Rijn,NL,52.1024489,4.6477615,nfarrington34@jugem.jp
114,Avamm,78 Helena Court,926,1004,Amsterdam,NL,52.3612714,4.8827921,bhawkshaw35@xinhuanet.com
115,Talane,261 Hansons Parkway,08,8229,Lelystad,NL,52.5077777,5.4757709,rduiged36@hc360.com
116,Blognation,5874 Claremont Pass,201,1360,Almere Haven,NL,52.842561,5.7187546,alornsen37@mysql.com
117,Linkbuzz,657 Dwight Point,5,8229,Lelystad,NL,52.5077777,5.4757709,zbradbury38@tinyurl.com
118,Dazzlesphere,0510 Lakeland Street,885,3109,Schiedam postbusnummers,NL,51.883,4.3577,dvanni39@woothemes.com
119,Gabtune,06 Mitchell Hill,563,5104,Dongen,NL,51.6271163,4.9413027,jsnufflebottom3a@123-reg.co.uk
120,Thoughtstorm,5 Forest Alley,4847,7504,Enschede,NL,52.211713,6.8954592,kghirardi3b@dot.gov
121,Eire,975 Veith Junction,9186,5464,Veghel,NL,51.630114,5.5807167,sclemoes3c@qq.com
122,Yambee,01 Stuart Crossing,6167,3764,Soest,NL,52.1861944,5.3099089,pchugg3d@diigo.com
123,Devshare,49 Blue Bill Park Junction,42331,5629,Eindhoven,NL,51.490189,5.4711208,aridgeway3e@ning.com
124,Tagchat,11188 Moose Pass,9,9704,Groningen,NL,53.2231057,6.5319506,dgoring3f@prnewswire.com
125,Mymm,359 Chinook Road,02,5464,Veghel,NL,51.630114,5.5807167,tyatman3g@house.gov
126,Realcube,38 Moose Way,14981,5684,Best,NL,51.513694,5.361629,lmilne3h@list-manage.com
127,Skimia,5 Leroy Avenue,74584,8214,Lelystad,NL,52.5077777,5.4757709,zromero3i@toplist.cz
128,Devpoint,34247 Sutherland Terrace,24,1819,Alkmaar,NL,52.6435136,4.7270746,eslowgrove3j@uiuc.edu
129,Twimm,986 Pawling Road,89,9674,Winschoten,NL,53.1250118,7.0114962,cfeldbaum3k@gravatar.com
130,Pixoboo,2283 Thompson Terrace,95,2495,Den Haag,NL,52.0563021,4.3610449,vtetther3l@theglobeandmail.com
131,JumpXS,45483 5th Alley,96501,3502,Utrecht (stad),NL,52.08234,5.1175293,uanderton3m@usa.gov
132,Dynabox,77 Lerdahl Crossing,87,7909,Hoogeveen,NL,52.7140571,6.4183299,mslayny3n@prlog.org
133,Mynte,7664 Kinsman Park,94,6904,Zevenaar,NL,51.9321156,6.0581861,jpestor3o@bbb.org
134,Browsedrive,1774 Dayton Place,6,4809,Breda,NL,52.3738284,4.8886159,awhiffin3p@imgur.com
135,Dynabox,082 North Lane,60371,1360,Almere Haven,NL,52.842561,5.7187546,sravenhill3q@aboutads.info
136,Skaboo,841 Golden Leaf Crossing,77,2720,Zoetermeer,NL,52.0625106,4.4911369,caskew3r@sun.com
137,Brainverse,7182 Anderson Park,436,7509,Enschede,NL,52.211713,6.8954592,ccahani3s@liveinternet.ru
138,Jayo,293 Fisk Plaza,5578,8024,Zwolle,NL,52.5168356,6.1433403,salthorp3t@ebay.co.uk
139,Myworks,420 Badeau Park,17835,5214,'s-Hertogenbosch,NL,51.6861013,5.2933198,lbedford3u@exblog.jp
140,Gigazoom,2 Schlimgen Crossing,68,5029,Tilburg,NL,51.5742615,5.0840393,riskower3v@mozilla.org
141,Twitterbeat,8216 Sunnyside Circle,63152,8229,Lelystad,NL,52.5077777,5.4757709,rragles3w@vinaora.com
142,Chatterbridge,56 Hayes Court,64881,7814,Emmen,NL,52.7881505,6.8700255,mepple3x@europa.eu
143,Oloo,7 Russell Way,11,2029,Haarlem,NL,52.3626877,4.6195236,bandreas3y@wisc.edu
144,Skalith,907 Porter Pass,66,5664,Geldrop,NL,51.4174812,5.5610329,cdowngate3z@globo.com
145,Thoughtstorm,658 Lake View Plaza,5097,1804,Alkmaar,NL,52.6325793,4.7239896,mwedge40@moonfruit.com
146,Zoovu,460 Clemons Drive,35,2495,Den Haag,NL,52.0563021,4.3610449,bbemwell41@mashable.com
147,Feedspan,3560 Cordelia Way,1590,5904,Venlo,NL,51.3731898,6.1747875,maynscombe42@mac.com
148,Skimia,11743 Ilene Point,8408,6464,Kerkrade,NL,50.8777778,6.0781852,ghursey43@sina.com.cn
149,Roomm,88625 Arrowood Center,32,3560,Utrecht (stad),NL,52.08234,5.1175293,datmore44@soundcloud.com
150,Photobug,920 Oxford Place,198,7814,Emmen,NL,52.7881505,6.8700255,gpuckinghorne45@latimes.com
151,Realcube,00 Bunker Hill Center,91641,1019,Amsterdam Binnenstad en Oostelijk Havengebied,NL,52.3770271,4.9192294,lhobden46@europa.eu
152,Lazzy,75 Rutledge Junction,18903,3709,Zeist,NL,52.066952,5.2407431,jhuffer47@theguardian.com
153,Yakidoo,99154 Texas Parkway,0910,6529,Nijmegen,NL,51.8417492,5.8715134,ajones48@ucsd.edu
154,Blogpad,903 Goodland Trail,5571,8914,Leeuwarden,NL,53.2060963,5.7524581,gattewell49@kickstarter.com
155,Yakitri,1 Walton Park,764,5464,Veghel,NL,51.630114,5.5807167,kdishmon4a@unicef.org
156,Oba,48 Saint Paul Court,12611,5029,Tilburg,NL,51.5742615,5.0840393,kaubery4b@php.net
157,Yombu,77 Everett Trail,765,7524,Enschede,NL,52.2608863,6.9041984,vjolly4c@webs.com
158,Jaxnation,3994 Division Trail,725,7524,Enschede,NL,52.2608863,6.9041984,lhaly4d@comcast.net
159,Talane,4 Haas Hill,5,7514,Enschede,NL,52.2254703,6.893632,jbleything4e@shinystat.com
160,Jabbersphere,9340 North Trail,1606,5904,Venlo,NL,51.3731898,6.1747875,nricketts4f@canalblog.com
161,Cogidoo,90833 Hermina Hill,678,1404,Bussum,NL,52.2766397,5.162358,rroughsedge4g@narod.ru
162,Gigabox,24 Scofield Terrace,3189,4004,Tiel,NL,51.9094928,5.4352554,edegiorgio4h@wufoo.com
163,Zoombeat,980 Sutteridge Park,82065,5104,Dongen,NL,51.6271163,4.9413027,rjaniszewski4i@dailymotion.com
164,Shufflebeat,46331 Haas Parkway,73,5214,'s-Hertogenbosch,NL,51.6861013,5.2933198,ngoodfellowe4j@elegantthemes.com
165,Flashdog,975 Bartelt Lane,3514,9674,Winschoten,NL,53.1250118,7.0114962,bgilmour4k@is.gd
166,Zoomlounge,47355 Cardinal Crossing,1,5249,Rosmalen,NL,51.7286846,5.4008695,mplampin4l@about.com
167,Shuffledrive,5 Towne Plaza,4067,4334,Middelburg,NL,51.5101547,3.5898423,acotillard4m@upenn.edu
168,Riffpath,98 Muir Trail,87961,3094,Rotterdam,NL,51.897904,4.473358,abenez4n@hostgator.com
169,Youspan,3 Coolidge Way,833,5609,Eindhoven,NL,51.5244042,5.7576526,rblackbourn4o@engadget.com
170,Avaveo,0997 Harper Street,14859,2578,Den Haag,NL,51.5190765,5.9202663,dpragnell4p@ftc.gov
171,Talane,61 Graedel Plaza,75,6509,Nijmegen,NL,51.8417492,5.8715134,elannon4q@etsy.com
172,Blogspan,5 La Follette Place,82,1069,Amsterdam Nieuw West,NL,52.3576375,4.7901227,lbrompton4r@salon.com
173,Kwinu,3 Beilfuss Crossing,2192,1360,Almere Haven,NL,52.842561,5.7187546,lgenty4s@vinaora.com
174,Tanoodle,543 Brown Trail,60915,7509,Enschede,NL,52.211713,6.8954592,agerry4t@wp.com
175,Youtags,95 Algoma Avenue,35,4619,Bergen op Zoom,NL,51.5004971,4.2864439,adimnage4u@redcross.org
176,Realpoint,4574 Oxford Crossing,8,3439,Nieuwegein,NL,52.0330418,5.1055921,eaiston4v@usgs.gov
177,Jabbersphere,4715 Wayridge Avenue,9,4839,Breda,NL,51.5829309,4.7066416,bimlaw4w@slate.com
178,Nlounge,6 Kenwood Lane,25,3560,Utrecht (stad),NL,52.08234,5.1175293,fmaypole4x@narod.ru
179,Twitterworks,75422 Stoughton Plaza,907,5349,Oss,NL,51.7610501,5.5510411,bpirson4y@businesswire.com
180,Twitterworks,9 Talmadge Park,85,5464,Veghel,NL,51.630114,5.5807167,nkingscott4z@123-reg.co.uk
181,Rhycero,6 Nancy Plaza,7,5224,'s-Hertogenbosch,NL,51.6991519,5.2583334,elamberton50@nih.gov
182,Zoonoodle,486 Almo Park,92,5609,Eindhoven,NL,51.5244042,5.7576526,esurgood51@blog.com
183,Linkbuzz,5054 Almo Place,59465,7609,Almelo,NL,52.3323097,6.6372501,kstait52@sogou.com
184,Aimbu,02 Mendota Road,04138,3224,Hellevoetsluis,NL,51.8281611,4.1481143,mjammes53@guardian.co.uk
185,Fatz,6 Milwaukee Crossing,906,8024,Zwolle,NL,52.5168356,6.1433403,stayler54@spotify.com
186,Livefish,77 Vernon Hill,880,7824,Emmen,NL,52.781689,6.9347107,mpenvarne55@china.com.cn
187,Yata,2576 Declaration Park,60,3530,Utrecht (stad),NL,52.08234,5.1175293,cmcbratney56@histats.com
188,Oyoloo,1 Mayfield Hill,7182,5104,Dongen,NL,51.6271163,4.9413027,bmapother57@addthis.com
189,Aivee,3358 Gerald Terrace,95394,6509,Nijmegen,NL,51.8417492,5.8715134,lrate58@bbc.co.uk
190,Tagcat,10545 Monument Hill,6,9204,Drachten,NL,53.0985458,6.0694,cbere59@wiley.com
191,Podcat,1 Drewry Drive,6286,9704,Groningen,NL,53.2231057,6.5319506,bdunsmore5a@cmu.edu
192,Tagcat,205 Muir Drive,676,7604,Almelo,NL,52.3517146,6.624795,ftebb5b@live.com
193,Dablist,50 Reindahl Trail,3131,8229,Lelystad,NL,52.5077777,5.4757709,gtinto5c@scribd.com
194,Browseblab,45 Dakota Pass,61778,6539,Nijmegen,NL,51.8417492,5.8715134,wwarboys5d@163.com
195,Meetz,912 Pond Point,5,3530,Utrecht (stad),NL,52.08234,5.1175293,swillden5e@ning.com
196,Zoomdog,6 Red Cloud Point,8,8029,Zwolle,NL,52.5112898,6.092908,pfackrell5f@jimdo.com
197,Tazzy,614 Knutson Hill,90,3709,Zeist,NL,52.066952,5.2407431,jjoreau5g@engadget.com
198,Cogilith,4 Charing Cross Road,1,5619,Eindhoven,NL,51.5244042,5.7576526,ivaneev5h@linkedin.com
199,Fatz,1732 Hintze Street,9128,2720,Zoetermeer,NL,52.0625106,4.4911369,farchdeacon5i@java.com
200,Skaboo,0574 Pine View Pass,72,6044,Roermond,NL,51.1806274,6.0187806,mgreste5j@netlog.com
201,Blognation,610 Larry Circle,06471,2624,Delft,NL,51.991495,4.3557381,wbertelmot5k@webeden.co.uk
202,Ooba,809 Jenifer Drive,46630,2014,Haarlem,NL,52.3739053,4.615857,mbaitson5l@ovh.net
203,Trunyx,53 Namekagon Center,1525,5619,Eindhoven,NL,51.5244042,5.7576526,tmenis5m@columbia.edu
204,Voonder,18461 Browning Plaza,06,1404,Bussum,NL,52.2766397,5.162358,pchatburn5n@etsy.com
205,Bluejam,31564 Pine View Drive,85,3994,Houten,NL,52.0296117,5.1841395,xbramley5o@instagram.com
206,Devcast,2 Northland Hill,835,3104,Schiedam postbusnummers,NL,51.883,4.3577,aostridge5p@google.com.au
207,Rhynoodle,30 Warbler Center,82465,7524,Enschede,NL,52.2608863,6.9041984,jyoodall5q@netvibes.com
208,Quimm,78 Glendale Street,8,4609,Bergen op Zoom,NL,51.5004971,4.2864439,dmaine5r@privacy.gov.au
209,Skilith,5 High Crossing Alley,908,3439,Nieuwegein,NL,52.0330418,5.1055921,bdunkerton5s@vistaprint.com
210,Skippad,2790 Farmco Place,348,8264,Kampen (Overijssel),NL,52.5577627,5.8915635,wfleg5t@who.int
211,Jabberstorm,10606 Buhler Hill,3242,3439,Nieuwegein,NL,52.0330418,5.1055921,iolagen5u@barnesandnoble.com
212,Eimbee,5 Starling Trail,02827,9730,Groningen,NL,53.2231057,6.5319506,jdarrigoe5v@cyberchimps.com
213,Quatz,8 Valley Edge Street,27,1049,Amsterdam Westpoort,NL,52.4000431,4.7642491,udantuoni5w@trellian.com
214,Tambee,8 Redwing Street,794,5104,Dongen,NL,51.6271163,4.9413027,jbilofsky5x@netscape.com
215,Wordware,548 Fallview Lane,6301,5204,'s-Hertogenbosch,NL,51.6861013,5.2933198,smoncur5y@tumblr.com
216,Lajo,49 Birchwood Center,8675,3009,Rotterdam postbusnummers,NL,51.8796,4.5059,rfitzsimons5z@1und1.de
217,Agimba,8932 Maryland Center,583,1964,Heemskerk,NL,52.5124538,4.6573346,mmckeaney60@biglobe.ne.jp
218,Skilith,6725 Summer Ridge Crossing,01943,2014,Haarlem,NL,52.3739053,4.615857,nblaza61@cnn.com
219,Twimm,8121 Grim Avenue,210,8019,Zwolle,NL,52.5019685,6.0684306,rsimmank62@a8.net
220,Skyble,2 Rockefeller Court,3701,5104,Dongen,NL,51.6271163,4.9413027,agrassick63@shutterfly.com
221,Midel,535 Graceland Lane,6902,7609,Almelo,NL,52.3323097,6.6372501,mafield64@printfriendly.com
222,Topiczoom,5 South Court,86387,2989,Ridderkerk,NL,51.8530202,4.6175276,fgaynesford65@cnbc.com
223,Wikizz,1 Ridgeview Terrace,34,4004,Tiel,NL,51.9094928,5.4352554,djager66@webeden.co.uk
224,Agivu,8 Autumn Leaf Terrace,87602,5009,Tilburg,NL,51.5742615,5.0840393,dswansbury67@google.com.br
225,Demivee,05215 Coleman Pass,72,8604,Sneek,NL,53.0353444,5.6840137,iwogan68@privacy.gov.au
226,Bubbletube,78538 Pepper Wood Center,143,1944,Beverwijk,NL,52.4927381,4.6490303,acoombe69@columbia.edu
227,Edgepulse,575 Moland Terrace,5576,3709,Zeist,NL,52.066952,5.2407431,qarthur6a@soup.io
228,Tambee,461 Manufacturers Alley,0916,4839,Breda,NL,51.5829309,4.7066416,frickhuss6b@ed.gov
229,Zoombox,28090 Morningstar Street,53230,8304,Emmeloord,NL,52.6863286,5.7569797,cfinlater6c@google.ru
230,Skalith,62519 Cordelia Terrace,15,5609,Eindhoven,NL,51.5244042,5.7576526,tshimwall6d@msn.com
231,Agimba,76 Bartelt Hill,10233,2989,Ridderkerk,NL,51.8530202,4.6175276,mhorney6e@simplemachines.org
232,Quimba,406 Pepper Wood Place,6401,5244,Rosmalen,NL,51.7153134,5.397367,bcownden6f@cpanel.net
233,Meedoo,91800 Nobel Crossing,86161,9674,Winschoten,NL,53.1250118,7.0114962,zmarquis6g@scientificamerican.com
234,Zoonoodle,5141 Ridge Oak Alley,11078,6224,Maastricht,NL,50.8493216,5.7114171,wrivard6h@slideshare.net
235,Babbleset,5 Fuller Plaza,5628,3550,Utrecht (stad),NL,52.08234,5.1175293,hgrenville6i@ftc.gov
236,Yodoo,85 Hallows Street,5634,4004,Tiel,NL,51.9094928,5.4352554,kpeak6j@mapy.cz
237,Tagpad,72173 Welch Parkway,5,6404,Heerlen,NL,50.9212447,5.9651892,goaten6k@google.cn
238,Jabberstorm,4 Sunnyside Circle,1325,4534,Terneuzen,NL,52.359151,5.1999127,mperceval6l@smugmug.com
239,Skiba,07092 Maple Wood Parkway,96,1079,Amsterdam Oud Zuid en Rivierenbuurt,NL,52.3444367,4.9091171,hloosely6m@desdev.cn
240,Izio,4933 Little Fleur Terrace,2941,9730,Groningen,NL,53.2231057,6.5319506,iblastock6n@cafepress.com
241,Aivee,81 Vidon Parkway,1,2578,Den Haag,NL,51.5190765,5.9202663,emarre6o@house.gov
242,Fliptune,47954 Sundown Circle,8263,8214,Lelystad,NL,52.5077777,5.4757709,smorch6p@independent.co.uk
243,Realcube,27 Golf Terrace,71447,3109,Schiedam postbusnummers,NL,51.883,4.3577,hkemmish6q@illinois.edu
244,Dynazzy,7299 Jackson Circle,20,8914,Leeuwarden,NL,53.2060963,5.7524581,lmcgrayle6r@slashdot.org
245,Rhycero,905 Fairview Avenue,00827,6824,Arnhem,NL,51.9913857,5.9372731,bbisson6s@usnews.com
246,Zoombeat,4808 Fulton Street,4,4874,Etten-Leur,NL,51.5749669,4.6259996,ksandford6t@auda.org.au
247,Flashspan,8726 Fair Oaks Lane,66,3709,Zeist,NL,52.066952,5.2407431,fromans6u@wordpress.com
248,Skinder,4042 New Castle Hill,01199,5044,Tilburg,NL,51.5731362,5.0314656,nhylden6v@go.com
249,Babbleopia,107 Holy Cross Court,27976,2304,Leiden,NL,52.1513886,4.4982869,tlathan6w@hugedomains.com
250,Ntag,57 Fallview Alley,9,1624,Hoorn,NL,52.6472404,5.0570439,mdowling6x@irs.gov
251,Dabfeed,30211 Mayfield Parkway,38743,1624,Hoorn,NL,52.6472404,5.0570439,smountlow6y@theglobeandmail.com
252,Plajo,542 Bluestem Road,73106,7409,Deventer,NL,52.2424706,6.2281859,hpurnell6z@theguardian.com
253,Devcast,0 Raven Circle,4,5244,Rosmalen,NL,51.7153134,5.397367,wfenelow70@gnu.org
254,Mycat,739 Granby Junction,2,7824,Emmen,NL,52.781689,6.9347107,lcuttle71@barnesandnoble.com
255,Flashset,4164 Hauk Circle,38979,1209,Hilversum,NL,52.2239735,5.1704277,gspadari72@usgs.gov
256,Yodoo,99793 Buhler Park,48811,5204,'s-Hertogenbosch,NL,51.6861013,5.2933198,croarty73@mit.edu
257,Roomm,26 Glendale Plaza,70817,4829,Breda,NL,52.3738284,4.8886159,rbanasik74@creativecommons.org
258,Skimia,791 Hanson Terrace,01,7329,Apeldoorn,NL,52.1972058,5.996755,zmccarle75@163.com
259,Mymm,0 Debs Place,8,8914,Leeuwarden,NL,53.2060963,5.7524581,martrick76@hibu.com
260,Trudoo,5571 Emmet Alley,4,5924,Venlo,NL,51.3666314,6.1313871,meglaise77@cdbaby.com
261,Trunyx,8 Service Circle,6,5914,Venlo,NL,51.3869562,6.1704266,sdetocqueville78@hubpages.com
262,Aimbu,24488 Melby Crossing,36,2264,Leidschendam,NL,52.0895358,4.3956096,dlenin79@craigslist.org
263,Topdrive,19569 Wayridge Road,019,2334,Leiden,NL,52.1701159,4.4833003,kburwell7a@ed.gov
264,Jaloo,1085 Farragut Plaza,79690,5029,Tilburg,NL,51.5742615,5.0840393,kcreevy7b@pbs.org
265,Jamia,0 Lukken Pass,503,1804,Alkmaar,NL,52.6325793,4.7239896,rtoombs7c@spotify.com
266,Dynava,56527 Center Pass,9,7534,Enschede,NL,52.2051033,6.9450818,jsavaage7d@hp.com
267,Babbleopia,12 Loftsgordon Place,28,5924,Venlo,NL,51.3666314,6.1313871,cbattey7e@nsw.gov.au
268,Realpoint,917 Basil Street,65894,2409,Alphen aan den Rijn,NL,52.1024489,4.6477615,wloder7f@netvibes.com
269,Riffpath,5 Columbus Trail,546,1964,Heemskerk,NL,52.5124538,4.6573346,fchaney7g@mapquest.com
270,Yodo,89775 Bashford Trail,80429,7604,Almelo,NL,52.3517146,6.624795,arapkins7h@mlb.com
271,Devcast,7772 Jenna Street,223,1404,Bussum,NL,52.2766397,5.162358,ayanshonok7i@wp.com
272,Oloo,77 Mayer Plaza,38,4609,Bergen op Zoom,NL,51.5004971,4.2864439,lbrodway7j@odnoklassniki.ru
273,Zazio,12199 Clarendon Park,4,2495,Den Haag,NL,52.0563021,4.3610449,ipidgeon7k@dailymotion.com
274,Eare,62 Golden Leaf Circle,683,8934,Leeuwarden,NL,53.1913133,5.8065627,lstaunton7l@sciencedaily.com
275,Edgeify,15376 Mockingbird Road,867,1360,Almere Haven,NL,52.842561,5.7187546,kknightley7m@ezinearticles.com
276,Wikivu,0 Melrose Hill,4117,5234,'s-Hertogenbosch,NL,51.7211356,5.2985109,lmeffan7n@flavors.me
277,Jabbercube,60630 Westend Plaza,73,2409,Alphen aan den Rijn,NL,52.1024489,4.6477615,mfleischmann7o@mysql.com
278,Livetube,33911 Fairview Road,51,2578,Den Haag,NL,51.5190765,5.9202663,cgunston7p@addtoany.com
279,Minyx,0999 New Castle Terrace,3,1209,Hilversum,NL,52.2239735,5.1704277,sreen7q@epa.gov
280,Dabjam,136 Londonderry Drive,26951,1974,IJmuiden,NL,52.4500648,4.5789114,itohill7r@disqus.com
281,Quinu,804 Thierer Place,25,1814,Alkmaar,NL,52.6201537,4.7406288,freedyhough7s@pagesperso-orange.fr
282,Brightbean,31466 Northland Trail,737,8604,Sneek,NL,53.0353444,5.6840137,lfauning7t@rediff.com
283,Lazzy,20 Crownhardt Place,30156,5464,Veghel,NL,51.630114,5.5807167,mugolotti7u@soundcloud.com
284,Kazu,0291 Roth Crossing,80,4384,Vlissingen,NL,51.4588944,3.5455371,aasling7v@slate.com
285,Wordify,42059 Roth Pass,62110,7504,Enschede,NL,52.211713,6.8954592,amanske7w@umich.edu
286,Dabvine,682 Lerdahl Pass,12485,3449,Woerden,NL,52.0825062,4.8461786,walliot7x@stumbleupon.com
287,Skyndu,10143 Twin Pines Trail,68,3009,Rotterdam postbusnummers,NL,51.8796,4.5059,bboyes7y@sina.com.cn
288,Meembee,344 Dorton Junction,87808,1049,Amsterdam Westpoort,NL,52.4000431,4.7642491,gperrycost7z@kickstarter.com
289,Mita,26 Fieldstone Circle,17142,9204,Drachten,NL,53.0985458,6.0694,ringerith80@nps.gov
290,BlogXS,2230 Helena Court,073,8214,Lelystad,NL,52.5077777,5.4757709,opampling81@cafepress.com
291,Gigashots,58 Monument Terrace,584,8039,Zwolle,NL,52.5112898,6.092908,dhoffmann82@marriott.com
292,Meeveo,76 Sycamore Junction,48,7804,Emmen,NL,52.7843212,6.8915145,mmachen83@usnews.com
293,Dabshots,39043 Redwing Avenue,20,4619,Bergen op Zoom,NL,51.5004971,4.2864439,ccarillo84@dagondesign.com
294,Devpoint,23643 Lakeland Place,50430,8019,Zwolle,NL,52.5019685,6.0684306,earendt85@canalblog.com
295,Babbleset,512 Oak Point,3006,6414,Heerlen,NL,50.9168212,5.9799297,bmephan86@arizona.edu
296,JumpXS,6 Victoria Avenue,6421,1974,IJmuiden,NL,52.4500648,4.5789114,glamplough87@geocities.jp
297,JumpXS,52 East Parkway,61,5249,Rosmalen,NL,51.7286846,5.4008695,blowbridge88@networkadvertising.org
298,Edgepulse,050 Montana Terrace,42937,7604,Almelo,NL,52.3517146,6.624795,gprendeville89@rambler.ru
299,Twitterlist,1 Dorton Trail,6,5509,Veldhoven,NL,51.4299433,5.4072542,abolland8a@ning.com
300,Chatterpoint,96 Bartelt Place,9495,1039,Amsterdam Noord west,NL,52.331282,4.93136,kcoggings8b@smugmug.com
301,Bubblebox,04 Chinook Park,77504,4819,Breda,NL,51.5749006,4.7680893,hgudd8c@ed.gov
302,Rhybox,4 Cascade Pass,13346,3449,Woerden,NL,52.0825062,4.8461786,cfleg8d@sogou.com
303,Jetpulse,70568 Merchant Road,8423,3709,Zeist,NL,52.066952,5.2407431,aloudyan8e@google.it
304,Twimm,8541 Golf Course Avenue,76,2720,Zoetermeer,NL,52.0625106,4.4911369,lbordman8f@networksolutions.com
305,Fivebridge,1 Pond Pass,98638,5619,Eindhoven,NL,51.5244042,5.7576526,cellerey8g@surveymonkey.com
306,Snaptags,19035 Sundown Road,8,8904,Leeuwarden,NL,53.2012042,5.8112912,iclunie8h@uiuc.edu
307,Myworks,67 Crest Line Plaza,0610,3502,Utrecht (stad),NL,52.08234,5.1175293,bdunsmuir8i@msn.com
308,Meedoo,621 Monterey Parkway,72,3764,Soest,NL,52.1861944,5.3099089,wsmeall8j@flickr.com
309,Zoombeat,6390 Manufacturers Court,808,1304,Almere Stad,NL,52.3670698,5.2156739,tcracknall8k@4shared.com
310,Jaloo,3236 Morrow Plaza,606,3560,Utrecht (stad),NL,52.08234,5.1175293,nkauffman8l@ca.gov
311,Vipe,5606 Comanche Junction,621,7504,Enschede,NL,52.211713,6.8954592,dscherer8m@networkadvertising.org
312,Oloo,8 Buena Vista Plaza,3,5619,Eindhoven,NL,51.5244042,5.7576526,jklimentov8n@irs.gov
313,Avamba,935 Bartelt Terrace,04927,3094,Rotterdam,NL,51.897904,4.473358,pcordeau8o@yolasite.com
314,Yabox,82 Rieder Way,691,2264,Leidschendam,NL,52.0895358,4.3956096,aasel8p@sciencedaily.com
315,Wikivu,2 Montana Place,277,1209,Hilversum,NL,52.2239735,5.1704277,pgower8q@typepad.com
316,Skaboo,8 Nova Alley,597,2014,Haarlem,NL,52.3739053,4.615857,kjerrome8r@yahoo.com
317,Zoombeat,9 Sloan Parkway,3055,2284,Rijswijk,NL,52.0393765,4.3161176,piveagh8s@slideshare.net
318,Realbuzz,6 Lakewood Gardens Park,69206,2004,Haarlem,NL,52.3626877,4.6195236,rconnop8t@hatena.ne.jp
319,Brainsphere,419 Novick Place,44,1304,Almere Stad,NL,52.3670698,5.2156739,hbackes8u@i2i.jp
320,Tagopia,4607 Arrowood Alley,6773,2495,Den Haag,NL,52.0563021,4.3610449,jdoig8v@reference.com
321,Latz,29249 Forest Terrace,2637,6519,Nijmegen,NL,51.8417492,5.8715134,ngirardot8w@tmall.com
322,Dablist,531 Brentwood Crossing,700,5009,Tilburg,NL,51.5742615,5.0840393,zstorek8x@elpais.com
323,Yakidoo,0 Ramsey Court,611,2004,Haarlem,NL,52.3626877,4.6195236,talden8y@zdnet.com
324,Zoomcast,992 Southridge Trail,9280,6714,Ede,NL,52.0442252,5.6463088,tluxen8z@alibaba.com
325,Youspan,784 Blue Bill Park Plaza,12,6519,Nijmegen,NL,51.8417492,5.8715134,palasdair90@nba.com
326,Flashset,34453 Parkside Drive,996,3550,Utrecht (stad),NL,52.08234,5.1175293,ctzarkov91@answers.com
327,Demizz,19 Bobwhite Lane,443,7534,Enschede,NL,52.2051033,6.9450818,mkershaw92@exblog.jp
328,Tazzy,596 Morrow Crossing,1047,6509,Nijmegen,NL,51.8417492,5.8715134,hhigford93@sogou.com
329,Eimbee,63 Monica Circle,19,8214,Lelystad,NL,52.5077777,5.4757709,hlorenzo94@sphinn.com
330,Rhybox,00708 Green Ridge Place,171,5914,Venlo,NL,51.3869562,6.1704266,jothick95@unblog.fr
331,Twinder,149 Esch Avenue,9884,1964,Heemskerk,NL,52.5124538,4.6573346,apilgram96@mtv.com
332,Yodoo,70986 Fisk Park,4,3560,Utrecht (stad),NL,52.08234,5.1175293,regleton97@earthlink.net
333,Skipstorm,64 Merchant Court,3,8044,Zwolle,NL,52.5470847,6.0237938,parpin98@huffingtonpost.com
334,Reallinks,04 Nancy Point,081,5244,Rosmalen,NL,51.7153134,5.397367,tmcilwaine99@cloudflare.com
335,Voonder,84 Katie Circle,480,7524,Enschede,NL,52.2608863,6.9041984,kstandring9a@mediafire.com
336,Mynte,6418 Bayside Place,2,8934,Leeuwarden,NL,53.1913133,5.8065627,cchampain9b@instagram.com
337,Kayveo,856 Debs Plaza,5121,3560,Utrecht (stad),NL,52.08234,5.1175293,mdavydychev9c@studiopress.com
338,Edgetag,93 Spenser Trail,5,8934,Leeuwarden,NL,53.1913133,5.8065627,khoggins9d@shutterfly.com
339,Tavu,4472 Barnett Plaza,68,2029,Haarlem,NL,52.3626877,4.6195236,holeary9e@reuters.com
340,Agimba,11 Corry Pass,484,6814,Arnhem,NL,51.9877935,5.9030863,ljurges9f@taobao.com
341,Jetpulse,165 Calypso Circle,8,2629,Delft,NL,51.9850245,4.3871967,tcollelton9g@hatena.ne.jp
342,Photobug,32756 Carey Road,189,5684,Best,NL,51.513694,5.361629,peddisforth9h@wikia.com
343,Snaptags,48160 Florence Hill,704,5244,Rosmalen,NL,51.7153134,5.397367,rbackson9i@aboutads.info
344,Feednation,01 Service Place,27808,5214,'s-Hertogenbosch,NL,51.6861013,5.2933198,gtames9j@xrea.com
345,Yodoo,92120 Donald Road,343,8904,Leeuwarden,NL,53.2012042,5.8112912,vcamamile9k@skype.com
346,Aivee,5874 Moose Avenue,4,7804,Emmen,NL,52.7843212,6.8915145,frickertsen9l@blinklist.com
347,Shuffledrive,697 Leroy Place,7583,8039,Zwolle,NL,52.5112898,6.092908,rjain9m@cocolog-nifty.com
348,Topiczoom,68643 Roth Alley,01,6824,Arnhem,NL,51.9913857,5.9372731,vdunthorne9n@google.de
349,Skiba,8 Mariners Cove Circle,2,4819,Breda,NL,51.5749006,4.7680893,finchcomb9o@eepurl.com
350,Oodoo,8 Buhler Way,0,6044,Roermond,NL,51.1806274,6.0187806,blundberg9p@twitter.com
351,Quimm,5 Drewry Terrace,65209,5234,'s-Hertogenbosch,NL,51.7211356,5.2985109,gchadbourn9q@tripadvisor.com
352,Avaveo,9 Reindahl Junction,0763,3550,Utrecht (stad),NL,52.08234,5.1175293,hfoddy9r@redcross.org
353,Edgeblab,45706 Dapin Pass,501,2304,Leiden,NL,52.1513886,4.4982869,tdo9s@indiegogo.com
354,Dazzlesphere,31271 Brickson Park Point,0519,2604,Delft,NL,51.9998397,4.3399875,lwebborn9t@about.me
355,Jabbersphere,76 Elgar Trail,812,1354,Almere Haven,NL,52.3382178,5.2172366,dgudyer9u@psu.edu
356,Podcat,013 Lillian Terrace,6,3550,Utrecht (stad),NL,52.08234,5.1175293,livannikov9v@google.com
357,Wordify,49 Schiller Junction,6288,7804,Emmen,NL,52.7843212,6.8915145,dferraraccio9w@ebay.com
358,Babbleset,0 Pankratz Road,8,7534,Enschede,NL,52.2051033,6.9450818,cgeikie9x@hubpages.com
359,Wordify,957 Briar Crest Street,275,3224,Hellevoetsluis,NL,51.8281611,4.1481143,mmckearnen9y@behance.net
360,Flipopia,9 Helena Alley,2,7824,Emmen,NL,52.781689,6.9347107,lneeves9z@ebay.com
361,Quimm,10134 Corben Circle,739,3805,Amersfoort,NL,52.1894953,5.3961917,kketchasidea0@msu.edu
362,Devpulse,67 Northridge Terrace,10432,7554,Hengelo,NL,52.222516,6.7371965,mtatforda1@comsenz.com
363,Meevee,25258 Anhalt Drive,617,3319,Dordrecht,NL,51.792865,4.6999899,statteshalla2@phpbb.com
364,Tambee,3299 Forest Drive,9298,7409,Deventer,NL,52.2424706,6.2281859,wfilesa3@elpais.com
365,Eire,81801 Sycamore Avenue,57588,6404,Heerlen,NL,50.9212447,5.9651892,gbucklana4@amazon.de
366,Livepath,98 David Point,68,7509,Enschede,NL,52.211713,6.8954592,ejuana5@nsw.gov.au
367,Flashspan,30 Chinook Crossing,28835,7609,Almelo,NL,52.3323097,6.6372501,twilcotta6@tinyurl.com
368,Yodo,886 Elmside Street,963,4809,Breda,NL,52.3738284,4.8886159,lcheesmana7@telegraph.co.uk
369,Mydo,21390 Prairie Rose Junction,3331,9704,Groningen,NL,53.2231057,6.5319506,oyushachkova8@tumblr.com
370,Realfire,1346 Waywood Junction,5,8264,Kampen (Overijssel),NL,52.5577627,5.8915635,aglanvilla9@hao123.com
371,Ooba,5113 Morning Plaza,11378,2019,Haarlem,NL,52.3811357,4.6419648,hshakespeareaa@hexun.com
372,Quamba,02835 Thierer Crossing,308,2604,Delft,NL,51.9998397,4.3399875,fyesichevab@github.io
373,Youspan,64128 Bowman Hill,85632,3324,Dordrecht,NL,51.7783026,4.693265,tfortesquieuac@illinois.edu
374,Pixope,27 Sullivan Way,053,6529,Nijmegen,NL,51.8417492,5.8715134,jhewellad@360.cn
375,Dynabox,180 Melrose Alley,6734,2334,Leiden,NL,52.1701159,4.4833003,grasellae@rakuten.co.jp
376,Jabberbean,99 Sutherland Trail,58,6519,Nijmegen,NL,51.8417492,5.8715134,sblakeyaf@kickstarter.com
377,Nlounge,6664 Dexter Way,1,8304,Emmeloord,NL,52.6863286,5.7569797,gmeekag@biglobe.ne.jp
378,Jamia,4372 Lotheville Avenue,3222,8044,Zwolle,NL,52.5470847,6.0237938,blastyah@msu.edu
379,Thoughtmix,91408 4th Crossing,4,2104,Heemstede,NL,52.3329057,4.6073677,jdymockeai@amazonaws.com
380,Dynabox,098 Anthes Plaza,7355,8029,Zwolle,NL,52.5112898,6.092908,jaronowitzaj@virginia.edu
381,Skyndu,28588 Bultman Circle,3668,8024,Zwolle,NL,52.5168356,6.1433403,psamperak@aboutads.info
382,Digitube,4 Texas Lane,431,8044,Zwolle,NL,52.5470847,6.0237938,llermital@soundcloud.com
383,Thoughtblab,1399 Golf Place,2360,5629,Eindhoven,NL,51.490189,5.4711208,ahardwidgeam@bigcartel.com
384,Zooxo,43714 Ronald Regan Center,67818,6214,Maastricht,NL,50.8446443,5.6735818,sskermean@redcross.org
385,Photobean,583 West Avenue,5,8604,Sneek,NL,53.0353444,5.6840137,aspitaroao@ca.gov
386,Youfeed,8748 6th Parkway,34131,5204,'s-Hertogenbosch,NL,51.6861013,5.2933198,gsueterap@ehow.com
387,Photobug,3913 Bowman Place,954,7824,Emmen,NL,52.781689,6.9347107,ptessingtonaq@seesaa.net
388,Flipopia,1447 Holy Cross Hill,255,2924,Krimpen aan den IJssel,NL,51.924574,4.616419,aalthamar@gnu.org
389,Meembee,0 Loeprich Terrace,483,2495,Den Haag,NL,52.0563021,4.3610449,icockingas@scribd.com
390,Agivu,64132 Mitchell Park,5,8019,Zwolle,NL,52.5019685,6.0684306,jlehrianat@phpbb.com
391,Yotz,621 Roxbury Drive,2950,7524,Enschede,NL,52.2608863,6.9041984,gbullinghamau@harvard.edu
392,Rhynoodle,872 Dexter Place,6,9674,Winschoten,NL,53.1250118,7.0114962,sbowllerav@webnode.com
393,Oloo,64 Merrick Circle,4745,6814,Arnhem,NL,51.9877935,5.9030863,cwitteyaw@reuters.com
394,Bluejam,4274 Southridge Crossing,40,5214,'s-Hertogenbosch,NL,51.6861013,5.2933198,fgiacoboax@microsoft.com
395,Edgeify,4434 Gina Circle,0,4829,Breda,NL,52.3738284,4.8886159,vlownay@sfgate.com
396,Edgeblab,61 Prentice Avenue,2,3224,Hellevoetsluis,NL,51.8281611,4.1481143,hgerblaz@slate.com
397,Zoomdog,80 Marquette Junction,53153,4829,Breda,NL,52.3738284,4.8886159,tportugalb0@marketwatch.com
398,Realblab,83254 Carioca Junction,58453,4839,Breda,NL,51.5829309,4.7066416,sburtb1@mayoclinic.com
399,Yotz,65 Eastwood Avenue,40920,7554,Hengelo,NL,52.222516,6.7371965,fforsterb2@artisteer.com
400,Voolia,44 Maple Road,9985,4609,Bergen op Zoom,NL,51.5004971,4.2864439,cbuttrissb3@unc.edu
401,Mycat,707 Judy Hill,01,5019,Tilburg,NL,51.5742615,5.0840393,egoublierb4@bing.com
402,Dazzlesphere,30671 Logan Trail,43,7554,Hengelo,NL,52.222516,6.7371965,mcorsellesb5@engadget.com
403,Realbuzz,93075 Westend Lane,584,1209,Hilversum,NL,52.2239735,5.1704277,gstclairb6@ox.ac.uk
404,Janyx,34 Delladonna Park,251,2019,Haarlem,NL,52.3811357,4.6419648,dlissandrinib7@addtoany.com
405,Jabbersphere,02754 Kingsford Point,08290,5629,Eindhoven,NL,51.490189,5.4711208,wvaillantb8@ning.com
406,Cogilith,37 Pearson Plaza,402,7604,Almelo,NL,52.3517146,6.624795,lcrummayb9@devhub.com
407,Divavu,0277 Northridge Way,007,1804,Alkmaar,NL,52.6325793,4.7239896,jnapoliba@globo.com
408,Einti,87 Northwestern Crossing,48147,6834,Arnhem,NL,51.9560027,5.9280255,ldudneybb@ifeng.com
409,Cogilith,80332 Pierstorff Plaza,0505,3899,Zeewolde,NL,52.3582468,5.5106628,kmaciverbc@chicagotribune.com
410,Skaboo,73708 Dunning Center,989,4384,Vlissingen,NL,51.4588944,3.5455371,kbrazearbd@businessinsider.com
411,Yakitri,67 Eagan Hill,36755,5009,Tilburg,NL,51.5742615,5.0840393,skhotlerbe@statcounter.com
412,LiveZ,3275 Hintze Plaza,78,8229,Lelystad,NL,52.5077777,5.4757709,fjenickebf@usnews.com
413,Dynava,0 Chinook Drive,56805,6204,Maastricht,NL,50.8269051,5.7198625,rhamelynbg@walmart.com
414,Aivee,2954 Sage Crossing,94685,4609,Bergen op Zoom,NL,51.5004971,4.2864439,divanchovbh@answers.com
415,Brainverse,921 Bowman Alley,51,8264,Kampen (Overijssel),NL,52.5577627,5.8915635,esailebi@xing.com
416,Oba,45 Old Shore Junction,3,6414,Heerlen,NL,50.9168212,5.9799297,dcongravebj@networkadvertising.org
417,Realbuzz,3 Forest Dale Terrace,98061,2629,Delft,NL,51.9850245,4.3871967,jalexandrescubk@cyberchimps.com
418,Wordtune,2 Bultman Junction,6129,1069,Amsterdam Nieuw West,NL,52.3576375,4.7901227,etowlebl@howstuffworks.com
419,Voomm,93040 Jenifer Avenue,243,5019,Tilburg,NL,51.5742615,5.0840393,gbergebm@i2i.jp
420,Eayo,2845 Merrick Road,22,6904,Zevenaar,NL,51.9321156,6.0581861,amccullockbn@hatena.ne.jp
421,Kwilith,48 Meadow Vale Way,29982,8264,Kampen (Overijssel),NL,52.5577627,5.8915635,dkopfbo@xrea.com
422,Skyndu,81 Utah Place,51308,8024,Zwolle,NL,52.5168356,6.1433403,jhaggardbp@dedecms.com
423,Thoughtbridge,61209 Ryan Parkway,76,5509,Veldhoven,NL,51.4299433,5.4072542,jmaddamsbq@sitemeter.com
424,Kwinu,3837 Petterle Lane,633,1069,Amsterdam Nieuw West,NL,52.3576375,4.7901227,nwitulbr@nhs.uk
425,Dynava,85966 Blue Bill Park Court,017,6714,Ede,NL,52.0442252,5.6463088,rdwellybs@addtoany.com
426,Photofeed,27 Washington Way,58,5349,Oss,NL,51.7610501,5.5510411,vkuberabt@java.com
427,Skyndu,96746 East Way,1155,7509,Enschede,NL,52.211713,6.8954592,cgilchristbu@house.gov
428,Flipbug,95 Columbus Park,39849,1049,Amsterdam Westpoort,NL,52.4000431,4.7642491,siacovolobv@odnoklassniki.ru
429,Jayo,05554 Scofield Lane,0608,6044,Roermond,NL,51.1806274,6.0187806,iwinneybw@google.co.uk
430,Browsetype,393 Corry Center,743,8214,Lelystad,NL,52.5077777,5.4757709,lhurtadobx@hugedomains.com
431,Lajo,42 Basil Trail,813,9704,Groningen,NL,53.2231057,6.5319506,mhalpeineby@bravesites.com
432,Rhybox,76359 Shelley Junction,482,2019,Haarlem,NL,52.3811357,4.6419648,pmatczakbz@etsy.com
433,Zoombeat,4634 Stuart Avenue,33010,2334,Leiden,NL,52.1701159,4.4833003,abolderstonec0@acquirethisname.com
434,Leexo,19 4th Hill,348,3319,Dordrecht,NL,51.792865,4.6999899,jhallenc1@indiegogo.com
435,Livefish,104 Schiller Road,16329,8914,Leeuwarden,NL,53.2060963,5.7524581,pbarnwillec2@cbc.ca
436,Cogibox,6093 Chive Parkway,66140,5619,Eindhoven,NL,51.5244042,5.7576526,fgwynethc3@boston.com
437,Skajo,75689 Mcbride Circle,85,3994,Houten,NL,52.0296117,5.1841395,fberkc4@youku.com
438,Quimba,56 Fuller Way,4,1624,Hoorn,NL,52.6472404,5.0570439,dkinvigc5@auda.org.au
439,Dabshots,2 Hoard Plaza,058,5904,Venlo,NL,51.3731898,6.1747875,kheaneyc6@webeden.co.uk
440,Browsedrive,743 Coleman Point,90011,1944,Beverwijk,NL,52.4927381,4.6490303,pgreallyc7@over-blog.com
441,Yotz,5 Ohio Crossing,139,5019,Tilburg,NL,51.5742615,5.0840393,ewhitleyc8@deliciousdays.com
442,Ainyx,6 Forest Parkway,3,5204,'s-Hertogenbosch,NL,51.6861013,5.2933198,cclaydonc9@upenn.edu
443,Brightbean,1208 Crescent Oaks Circle,97,2228,Katwijk,NL,51.8891035,5.9269366,gbloxhamca@prnewswire.com
444,Jaxworks,440 Rowland Alley,6994,7409,Deventer,NL,52.2424706,6.2281859,kreglarcb@imageshack.us
445,Aibox,63 Sullivan Pass,1084,7604,Almelo,NL,52.3517146,6.624795,cwattinscc@mac.com
446,Reallinks,647 Derek Park,9,7004,Doetinchem,NL,51.9500617,6.3130893,msehorschcd@issuu.com
447,Tagcat,94 Tennessee Road,2,3439,Nieuwegein,NL,52.0330418,5.1055921,calthamce@mozilla.org
448,Yodo,4 Calypso Hill,1811,7504,Enschede,NL,52.211713,6.8954592,mcrastercf@tripod.com
449,Centimia,8608 Glacier Hill Point,4985,5029,Tilburg,NL,51.5742615,5.0840393,dgirkinscg@plala.or.jp
450,Wordtune,0 Weeping Birch Trail,39781,3094,Rotterdam,NL,51.897904,4.473358,oghioch@cyberchimps.com
451,Eadel,85284 Oak Street,27,8044,Zwolle,NL,52.5470847,6.0237938,jalbanci@tinyurl.com
452,Brainlounge,3875 Prairie Rose Drive,3,5509,Veldhoven,NL,51.4299433,5.4072542,dbaudiccj@arizona.edu
453,Blogpad,32 Marcy Avenue,78,8934,Leeuwarden,NL,53.1913133,5.8065627,dfranzonellock@nydailynews.com
454,Devpoint,29 7th Crossing,44573,8044,Zwolle,NL,52.5470847,6.0237938,ebrumwellcl@xing.com
455,Twitterbridge,91578 Bunting Street,1097,3439,Nieuwegein,NL,52.0330418,5.1055921,sfolloscm@geocities.jp
456,Eabox,8426 Thierer Center,990,3094,Rotterdam,NL,51.897904,4.473358,wjankoviccn@eepurl.com
457,Dabjam,3137 Holmberg Circle,100,8029,Zwolle,NL,52.5112898,6.092908,alenoxco@purevolume.com
458,Fivechat,78 Merrick Junction,8087,8039,Zwolle,NL,52.5112898,6.092908,ablestcp@tinypic.com
459,Yodoo,00 Ramsey Park,627,5029,Tilburg,NL,51.5742615,5.0840393,vsonleycq@fotki.com
460,Bubbletube,13 Stang Pass,3,2329,Leiden,NL,52.1513886,4.4982869,rrimmercr@hibu.com
461,Zoonder,2 Golf Place,5563,1404,Bussum,NL,52.2766397,5.162358,jradkics@gravatar.com
462,Abata,5801 Morning Point,774,6709,Wageningen,NL,51.9671737,5.6469613,ndarthct@booking.com
463,Cogibox,044 Truax Point,02439,3094,Rotterdam,NL,51.897904,4.473358,ddyottcu@yale.edu
464,Browsezoom,99642 1st Road,8,2014,Haarlem,NL,52.3739053,4.615857,fdeftycv@washington.edu
465,Fadeo,6 Starling Hill,19441,4334,Middelburg,NL,51.5101547,3.5898423,fcawdellcw@wired.com
466,Buzzshare,4737 Green Trail,5216,2624,Delft,NL,51.991495,4.3557381,emessercx@narod.ru
467,Wikizz,14629 Hollow Ridge Street,78088,8304,Emmeloord,NL,52.6863286,5.7569797,kswindlescy@about.me
468,Dabtype,849 Stoughton Junction,03922,7814,Emmen,NL,52.7881505,6.8700255,lboylescz@loc.gov
469,Yakitri,37 Homewood Road,3,2284,Rijswijk,NL,52.0393765,4.3161176,mpresideyd0@uol.com.br
470,LiveZ,2466 Rusk Terrace,1,1944,Beverwijk,NL,52.4927381,4.6490303,tlysaghtd1@ihg.com
471,Camimbo,571 Trailsway Lane,0,3449,Woerden,NL,52.0825062,4.8461786,ccapnerd2@chicagotribune.com
472,Photobug,89733 Dexter Circle,984,4874,Etten-Leur,NL,51.5749669,4.6259996,mjansed3@wordpress.com
473,Fatz,7 Elgar Point,681,8264,Kampen (Overijssel),NL,52.5577627,5.8915635,ecrittald4@ehow.com
474,Zoomcast,8 Bellgrove Lane,6724,3309,Dordrecht,NL,51.7783026,4.693265,jclered5@friendfeed.com
475,Gigabox,43750 Memorial Lane,936,1814,Alkmaar,NL,52.6201537,4.7406288,nlystd6@independent.co.uk
476,Tagtune,78 Killdeer Pass,765,8934,Leeuwarden,NL,53.1913133,5.8065627,uduncansond7@marriott.com
477,Wordtune,646 Barby Center,7,7814,Emmen,NL,52.7881505,6.8700255,glynchd8@shutterfly.com
478,Aivee,88247 Schurz Junction,58,5044,Tilburg,NL,51.5731362,5.0314656,enewbattd9@pen.io
479,Skimia,7260 Grim Center,0048,2309,Leiden,NL,52.1513886,4.4982869,ltoffettoda@t.co
480,Shufflester,42 Brentwood Court,3627,4384,Vlissingen,NL,51.4588944,3.5455371,wblodgettsdb@noaa.gov
481,Fiveclub,1 Forest Trail,63,7309,Apeldoorn,NL,52.2313764,5.9938487,aplanquedc@wikimedia.org
482,Linktype,11496 Debra Way,4,9204,Drachten,NL,53.0985458,6.0694,kgarberdd@usda.gov
483,Flipstorm,1 Prentice Court,861,3899,Zeewolde,NL,52.3582468,5.5106628,bbolithode@mapy.cz
484,Dazzlesphere,88021 Merry Terrace,570,5249,Rosmalen,NL,51.7286846,5.4008695,amotedf@goodreads.com
485,Topiczoom,0 Heffernan Trail,2292,5924,Venlo,NL,51.3666314,6.1313871,ftaillarddg@sourceforge.net
486,Zazio,76 Thompson Terrace,288,5904,Venlo,NL,51.3731898,6.1747875,hsilleydh@instagram.com
487,Skimia,395 Coolidge Park,273,1964,Heemskerk,NL,52.5124538,4.6573346,krembrantdi@wikia.com
488,Digitube,540 Roth Road,13551,3319,Dordrecht,NL,51.792865,4.6999899,pjankovicdj@ocn.ne.jp
489,Yotz,776 Boyd Junction,9,4534,Terneuzen,NL,52.359151,5.1999127,ganfussodk@dmoz.org
490,Buzzster,61 Coleman Alley,78024,8229,Lelystad,NL,52.5077777,5.4757709,rbucherdl@topsy.com
491,Realcube,91785 Mallory Point,74709,6709,Wageningen,NL,51.9671737,5.6469613,swabererdm@berkeley.edu
492,Skajo,363 Merry Road,3617,1004,Amsterdam,NL,52.3612714,4.8827921,aristedn@pinterest.com
493,Cogilith,41797 Lighthouse Bay Avenue,860,4384,Vlissingen,NL,51.4588944,3.5455371,ocarlsondo@ucsd.edu
494,Youspan,53513 Hoard Point,95,8914,Leeuwarden,NL,53.2060963,5.7524581,rparisodp@tumblr.com
495,Mynte,466 Riverside Trail,63,1004,Amsterdam,NL,52.3612714,4.8827921,rtriggeldq@sakura.ne.jp
496,Meeveo,8263 Clemons Junction,4,7409,Deventer,NL,52.2424706,6.2281859,iwattdr@creativecommons.org
497,Feedbug,130 Onsgard Alley,102,3324,Dordrecht,NL,51.7783026,4.693265,kseywoodds@gov.uk
498,Skalith,65 Dunning Road,7,9674,Winschoten,NL,53.1250118,7.0114962,hmardledt@wix.com
499,Skiba,805 Delladonna Junction,2698,3805,Amersfoort,NL,52.1894953,5.3961917,wlaffranconidu@stanford.edu
500,Browsebug,144 Mcbride Terrace,3,3530,Utrecht (stad),NL,52.08234,5.1175293,ctimperleydv@time.com
501,Voomm,949 Lakewood Gardens Avenue,0792,3899,Zeewolde,NL,52.3582468,5.5106628,ascarffedw@virginia.edu
502,Thoughtworks,6 Kim Hill,5944,4384,Vlissingen,NL,51.4588944,3.5455371,mparkissondx@multiply.com
503,Youspan,32 Jenifer Place,02977,8039,Zwolle,NL,52.5112898,6.092908,afallowsdy@sciencedirect.com
504,Digitube,39447 Kingsford Center,4219,1079,Amsterdam Oud Zuid en Rivierenbuurt,NL,52.3444367,4.9091171,jartissdz@plala.or.jp
505,Topdrive,9351 Macpherson Junction,6,3502,Utrecht (stad),NL,52.08234,5.1175293,dcoattse0@furl.net
506,Eabox,8 Armistice Alley,191,3309,Dordrecht,NL,51.7783026,4.693265,ebygravese1@indiegogo.com
507,Flipstorm,675 Goodland Hill,65058,5644,Eindhoven,NL,51.4131558,5.4852794,mclyburne2@blogger.com
508,Jaxspan,18 Carioca Crossing,68180,7004,Doetinchem,NL,51.9500617,6.3130893,twoofe3@wikia.com
509,Divape,796 Old Gate Terrace,0,2495,Den Haag,NL,52.0563021,4.3610449,ltothee4@bbb.org
510,Browsecat,637 Crownhardt Pass,99972,4334,Middelburg,NL,51.5101547,3.5898423,htrinkee5@reddit.com
511,Flashspan,3 Hauk Terrace,11910,4839,Breda,NL,51.5829309,4.7066416,aglanze6@nba.com
512,Yodel,0522 Garrison Trail,781,2989,Ridderkerk,NL,51.8530202,4.6175276,kbynolde7@tamu.edu
513,Eayo,2669 Hallows Junction,1,6224,Maastricht,NL,50.8493216,5.7114171,ghawgoode8@mail.ru
514,Centizu,56009 Fremont Junction,960,2409,Alphen aan den Rijn,NL,52.1024489,4.6477615,rsharde9@chron.com
515,Kare,8 Forest Trail,970,6414,Heerlen,NL,50.9168212,5.9799297,zzorerea@state.tx.us
516,Buzzbean,8 Mockingbird Alley,1659,8024,Zwolle,NL,52.5168356,6.1433403,cmckintyeb@tripadvisor.com
517,Demimbu,6497 Burrows Park,09674,8304,Emmeloord,NL,52.6863286,5.7569797,atogherec@mapy.cz
518,Twitternation,3343 Rutledge Parkway,23109,5904,Venlo,NL,51.3731898,6.1747875,whircheed@google.es
519,Realmix,09769 Arapahoe Street,8,2264,Leidschendam,NL,52.0895358,4.3956096,etrythallee@oaic.gov.au
520,Gevee,76178 Macpherson Trail,5235,4839,Breda,NL,51.5829309,4.7066416,tcailef@wired.com
521,Photobug,63 Northfield Parkway,8003,8204,Lelystad,NL,52.5077777,5.4757709,atrollopeeg@telegraph.co.uk
522,Oyoyo,91 Lakewood Parkway,2,6214,Maastricht,NL,50.8446443,5.6735818,aricheleh@quantcast.com
523,Oyonder,19 Truax Park,2,5144,Waalwijk,NL,51.6773339,5.0633742,bshillomei@ask.com
524,Innojam,2211 East Hill,9763,6714,Ede,NL,52.0442252,5.6463088,acadiganej@biblegateway.com
525,Riffpath,42 Kipling Way,817,3104,Schiedam postbusnummers,NL,51.883,4.3577,thatherleyek@phpbb.com
526,Quimm,19553 7th Terrace,20,1944,Beverwijk,NL,52.4927381,4.6490303,rshearael@istockphoto.com
527,Quatz,351 Johnson Center,41,1964,Heemskerk,NL,52.5124538,4.6573346,bsommerlandem@imdb.com
528,Kayveo,7 Green Ridge Center,472,4619,Bergen op Zoom,NL,51.5004971,4.2864439,mstearen@bigcartel.com
529,Fadeo,0 Jay Park,5384,4839,Breda,NL,51.5829309,4.7066416,kbrayshereo@constantcontact.com
530,Yodoo,8737 6th Alley,01230,6204,Maastricht,NL,50.8269051,5.7198625,smaccaghanep@accuweather.com
531,Leenti,1050 Marcy Point,578,5224,'s-Hertogenbosch,NL,51.6991519,5.2583334,bepeletteq@gnu.org
532,Youbridge,267 4th Point,62,7524,Enschede,NL,52.2608863,6.9041984,dsisneroser@biblegateway.com
533,Demizz,34672 Rieder Court,52565,3899,Zeewolde,NL,52.3582468,5.5106628,lvignees@nsw.gov.au
534,Voonder,131 Badeau Drive,5,7554,Hengelo,NL,52.222516,6.7371965,darringtonet@yelp.com
535,Shuffledrive,7 Rigney Center,561,7554,Hengelo,NL,52.222516,6.7371965,thaibeleu@naver.com
536,Chatterbridge,4095 Autumn Leaf Avenue,97,8029,Zwolle,NL,52.5112898,6.092908,jhellinev@123-reg.co.uk
537,Janyx,74 Larry Parkway,95,2614,Delft,NL,52.0095284,4.3342058,mshilburneew@hp.com
538,Twitterbeat,60 Dapin Pass,711,7514,Enschede,NL,52.2254703,6.893632,gloughheadex@hibu.com
539,Oyonder,18 Bunker Hill Place,7760,5464,Veghel,NL,51.630114,5.5807167,kkearey@nature.com
540,Tagpad,8 Westend Street,75,2274,Voorburg,NL,52.0726169,4.3505874,rrobertiez@shareasale.com
541,Mudo,722 Westend Crossing,36,1504,Zaandam,NL,52.435251,4.8501344,yreburnf0@mlb.com
542,Yakijo,4 Lakeland Parkway,9,1304,Almere Stad,NL,52.3670698,5.2156739,kmarusyakf1@wordpress.org
543,Twiyo,3191 Bobwhite Point,720,2409,Alphen aan den Rijn,NL,52.1024489,4.6477615,ejenkinf2@intel.com
544,Jetwire,131 Holy Cross Junction,69849,5349,Oss,NL,51.7610501,5.5510411,dsulmanf3@surveymonkey.com
545,Topicstorm,928 Knutson Court,9364,6214,Maastricht,NL,50.8446443,5.6735818,rshrimptonef4@ucoz.com
546,Katz,319 Evergreen Center,86977,2004,Haarlem,NL,52.3626877,4.6195236,gtreadgearf5@istockphoto.com
547,Muxo,1 Northview Center,658,6824,Arnhem,NL,51.9913857,5.9372731,vbenzf6@mapquest.com
548,Abatz,62854 Beilfuss Center,6321,4619,Bergen op Zoom,NL,51.5004971,4.2864439,rgippf7@discovery.com
549,Dynabox,044 Westerfield Circle,222,1304,Almere Stad,NL,52.3670698,5.2156739,apinfoldf8@techcrunch.com
550,Topiczoom,96570 Truax Pass,92,2274,Voorburg,NL,52.0726169,4.3505874,ptiddf9@smh.com.au
551,Pixonyx,7 Bluejay Hill,942,6224,Maastricht,NL,50.8493216,5.7114171,dchatwoodfa@un.org
552,Dazzlesphere,37993 Buhler Alley,4538,3764,Soest,NL,52.1861944,5.3099089,aflaniganfb@umich.edu
553,BlogXS,8096 Merchant Alley,67214,2495,Den Haag,NL,52.0563021,4.3610449,abessonfc@amazonaws.com
554,Aimbo,4 Muir Plaza,1218,2264,Leidschendam,NL,52.0895358,4.3956096,kshellyfd@vinaora.com
555,Izio,56978 Larry Drive,32,1069,Amsterdam Nieuw West,NL,52.3576375,4.7901227,brankmorefe@zimbio.com
556,Brightdog,68400 Sunnyside Trail,0676,9730,Groningen,NL,53.2231057,6.5319506,ksouthcombeff@npr.org
557,Yakijo,82 Emmet Point,3339,8914,Leeuwarden,NL,53.2060963,5.7524581,ksquirrellfg@unc.edu
558,Twinder,735 Old Shore Way,4339,5629,Eindhoven,NL,51.490189,5.4711208,fdewittfh@jalbum.net
559,Realblab,86037 7th Drive,823,1964,Heemskerk,NL,52.5124538,4.6573346,tlowthianfi@flavors.me
560,Yakitri,3147 Menomonie Avenue,7899,5924,Venlo,NL,51.3666314,6.1313871,smandelfj@is.gd
561,Babblestorm,35007 Dennis Street,5,7504,Enschede,NL,52.211713,6.8954592,mdenisovofk@unblog.fr
562,Jetpulse,1654 Autumn Leaf Way,608,5914,Venlo,NL,51.3869562,6.1704266,ccranagefl@gravatar.com
563,Feednation,3 Texas Plaza,8878,2989,Ridderkerk,NL,51.8530202,4.6175276,swestonfm@cbsnews.com
564,Edgeclub,7 Hintze Lane,8462,7319,Apeldoorn,NL,52.2313764,5.9938487,slevittfn@tiny.cc
565,Fivespan,4263 Arapahoe Pass,98826,5914,Venlo,NL,51.3869562,6.1704266,hpizerfo@amazon.co.jp
566,Jazzy,1 Dapin Junction,150,2624,Delft,NL,51.991495,4.3557381,kdolphinfp@t.co
567,Vipe,7885 Randy Pass,03,2309,Leiden,NL,52.1513886,4.4982869,hwakerleyfq@twitpic.com
568,Oba,98442 Ruskin Trail,98,4004,Tiel,NL,51.9094928,5.4352554,gizodfr@foxnews.com
569,Mydo,1 Jay Terrace,8,7804,Emmen,NL,52.7843212,6.8915145,bbaisefs@arizona.edu
570,Jaxworks,8 Coolidge Lane,98295,5609,Eindhoven,NL,51.5244042,5.7576526,joddyft@boston.com
571,Roodel,77778 Granby Drive,822,1354,Almere Haven,NL,52.3382178,5.2172366,hbabinskifu@bigcartel.com
572,Eabox,82564 Lakeland Avenue,322,8904,Leeuwarden,NL,53.2012042,5.8112912,mstarbuckefv@cdc.gov
573,Bluezoom,0 Di Loreto Plaza,7210,7309,Apeldoorn,NL,52.2313764,5.9938487,snovicfw@webmd.com
574,Topiczoom,917 Ramsey Hill,00787,4819,Breda,NL,51.5749006,4.7680893,dhanrattyfx@yellowpages.com
575,Jaxworks,1 Warner Drive,16,7554,Hengelo,NL,52.222516,6.7371965,rsircombfy@altervista.org
576,Linkbridge,0 Johnson Plaza,7,6404,Heerlen,NL,50.9212447,5.9651892,cmoyseyfz@tripod.com
577,Yata,2 Sachs Trail,80,3094,Rotterdam,NL,51.897904,4.473358,hmeighang0@bluehost.com
578,Feedfire,6394 Corry Road,82706,1819,Alkmaar,NL,52.6435136,4.7270746,bwignallg1@free.fr
579,Jaxworks,4941 Northview Plaza,4359,8024,Zwolle,NL,52.5168356,6.1433403,ldavoreng2@163.com
580,Bubblebox,51843 Carey Way,84572,4874,Etten-Leur,NL,51.5749669,4.6259996,acowang3@simplemachines.org
581,Yodo,5847 Clarendon Circle,519,7319,Apeldoorn,NL,52.2313764,5.9938487,mortg4@smh.com.au
582,Eare,73 Alpine Trail,22842,7329,Apeldoorn,NL,52.1972058,5.996755,cwandreyg5@msu.edu
583,Latz,93037 Atwood Court,36357,2409,Alphen aan den Rijn,NL,52.1024489,4.6477615,cstateng6@sbwire.com
584,Dynazzy,43020 Heath Trail,4,1964,Heemskerk,NL,52.5124538,4.6573346,lmcfarlaneg7@skype.com
585,Babbleblab,04071 Transport Pass,02236,4334,Middelburg,NL,51.5101547,3.5898423,blloydsg8@woothemes.com
586,Ainyx,86312 Jackson Drive,05,3550,Utrecht (stad),NL,52.08234,5.1175293,sskeeneg9@tripod.com
587,Skinder,1850 Bonner Trail,83,1004,Amsterdam,NL,52.3612714,4.8827921,gmadisonga@vinaora.com
588,Gabtype,26 Sage Junction,4853,2329,Leiden,NL,52.1513886,4.4982869,lduhiggb@google.ru
589,Yotz,48086 Grover Crossing,883,5914,Venlo,NL,51.3869562,6.1704266,caleksandrikingc@squidoo.com
590,Gigaclub,31 Portage Point,2,7824,Emmen,NL,52.781689,6.9347107,fhalsongd@behance.net
591,Skimia,41180 Truax Crossing,72606,8604,Sneek,NL,53.0353444,5.6840137,skaradzasge@360.cn
592,Tagfeed,555 Rowland Point,54,2578,Den Haag,NL,51.5190765,5.9202663,bfigliovannigf@simplemachines.org
593,Feedbug,3731 Dwight Point,95,5019,Tilburg,NL,51.5742615,5.0840393,rdanielskigg@e-recht24.de
594,Oozz,8 Packers Pass,20237,6834,Arnhem,NL,51.9560027,5.9280255,dsmeuingh@goo.ne.jp
595,Teklist,17 Pearson Trail,059,5914,Venlo,NL,51.3869562,6.1704266,bdodsworthgi@wisc.edu
596,Tagcat,6332 Glendale Plaza,93,2264,Leidschendam,NL,52.0895358,4.3956096,chargreavegj@wufoo.com
597,Blogtag,49640 Morrow Crossing,14605,5684,Best,NL,51.513694,5.361629,srevillegk@plala.or.jp
598,Flipstorm,5 Hintze Pass,06,2329,Leiden,NL,52.1513886,4.4982869,skeysongl@paginegialle.it
599,Realbuzz,07090 Dwight Crossing,41,3449,Woerden,NL,52.0825062,4.8461786,riresongm@themeforest.net
600,Katz,4657 Oakridge Road,4100,3104,Schiedam postbusnummers,NL,51.883,4.3577,wjelksgn@gnu.org
601,Divanoodle,59624 Arapahoe Circle,3,5629,Eindhoven,NL,51.490189,5.4711208,dfarmerygo@va.gov
602,Photojam,264 Westport Point,2737,6519,Nijmegen,NL,51.8417492,5.8715134,binesongp@infoseek.co.jp
603,Photofeed,53561 Lighthouse Bay Center,96801,5019,Tilburg,NL,51.5742615,5.0840393,jhavegq@jugem.jp
604,Kanoodle,183 Vera Crossing,5,5214,'s-Hertogenbosch,NL,51.6861013,5.2933198,jcoulinggr@com.com
605,Zoomcast,08011 Eggendart Plaza,37,7534,Enschede,NL,52.2051033,6.9450818,hgranthamgs@ameblo.jp
606,Shufflester,16 Del Mar Place,6413,3439,Nieuwegein,NL,52.0330418,5.1055921,peastwaygt@jimdo.com
607,Jaxworks,8659 Golf Plaza,25,6709,Wageningen,NL,51.9671737,5.6469613,iworkgu@elegantthemes.com
608,Jaloo,7516 Duke Drive,8,3502,Utrecht (stad),NL,52.08234,5.1175293,rtongsgv@sohu.com
609,Fliptune,067 Toban Terrace,7,2334,Leiden,NL,52.1701159,4.4833003,hpondgw@virginia.edu
610,Vinder,62114 Anzinger Circle,266,6404,Heerlen,NL,50.9212447,5.9651892,hbiskupekgx@elegantthemes.com
611,Realpoint,2473 Cascade Trail,6533,1804,Alkmaar,NL,52.6325793,4.7239896,bgisburngy@prlog.org
612,Browsetype,33568 Sugar Parkway,284,2604,Delft,NL,51.9998397,4.3399875,gdyosgz@chron.com
613,Oyoba,4864 Linden Center,46446,3109,Schiedam postbusnummers,NL,51.883,4.3577,dfisbeyh0@blog.com
614,Bubbletube,83 Dapin Place,14,6404,Heerlen,NL,50.9212447,5.9651892,awolfith1@rambler.ru
615,Centizu,45043 Jay Alley,5,5234,'s-Hertogenbosch,NL,51.7211356,5.2985109,cmcclymondh2@xrea.com
616,Brightbean,848 Pankratz Road,61779,1624,Hoorn,NL,52.6472404,5.0570439,gmichielih3@example.com
617,Vinte,036 Northport Plaza,961,6804,Arnhem,NL,51.9701203,5.9409472,ksketh4@ox.ac.uk
618,Tekfly,87659 Ilene Crossing,5207,6044,Roermond,NL,51.1806274,6.0187806,bspybyh5@admin.ch
619,Topicblab,896 Kim Way,05900,9674,Winschoten,NL,53.1250118,7.0114962,tdameiseleh6@nationalgeographic.com
620,Quatz,683 Dexter Hill,0744,5644,Eindhoven,NL,51.4131558,5.4852794,gbellish7@nydailynews.com
621,Yotz,36770 Rutledge Drive,808,7504,Enschede,NL,52.211713,6.8954592,glunah8@hostgator.com
622,Trilia,96938 Eliot Point,409,5664,Geldrop,NL,51.4174812,5.5610329,cdunkleyh9@cbslocal.com
623,Trunyx,886 Sunnyside Parkway,9,4384,Vlissingen,NL,51.4588944,3.5455371,rharbisonha@elegantthemes.com
624,Gevee,05 Anhalt Terrace,24403,5044,Tilburg,NL,51.5731362,5.0314656,cdelacourhb@pinterest.com
625,Realmix,82 Kensington Terrace,16595,5044,Tilburg,NL,51.5731362,5.0314656,tnellishc@behance.net
626,Meevee,965 Helena Court,8322,3844,Harderwijk,NL,52.3376849,5.6072982,eellistonhd@zimbio.com
627,Yodo,89936 Golf Course Point,270,7509,Enschede,NL,52.211713,6.8954592,luridgehe@ezinearticles.com
628,Edgetag,0441 Aberg Park,66,2019,Haarlem,NL,52.3811357,4.6419648,gpaffordhf@liveinternet.ru
629,Gabtune,39 Dapin Park,607,9704,Groningen,NL,53.2231057,6.5319506,omccarrisonhg@google.cn
630,Zazio,2665 Redwing Hill,8,8214,Lelystad,NL,52.5077777,5.4757709,kpackingtonhh@wordpress.org
631,Miboo,7960 Harbort Trail,36962,3324,Dordrecht,NL,51.7783026,4.693265,rarnaudonhi@usnews.com
632,Youspan,964 Anderson Hill,9747,8604,Sneek,NL,53.0353444,5.6840137,ibolesmahj@ebay.co.uk
633,Wikizz,90279 Warrior Trail,5,1304,Almere Stad,NL,52.3670698,5.2156739,vwhortonhk@marketwatch.com
634,Roomm,6 Cody Park,37,1404,Bussum,NL,52.2766397,5.162358,sjovasevichl@example.com
635,Dabtype,51558 Tennyson Road,1,5629,Eindhoven,NL,51.490189,5.4711208,nworhamhm@theglobeandmail.com
636,Babbleblab,11663 Emmet Circle,8,1039,Amsterdam Noord west,NL,52.331282,4.93136,slancashirehn@umn.edu
637,Shuffletag,65 Buell Lane,68429,2578,Den Haag,NL,51.5190765,5.9202663,kbarghho@google.pl
638,Eire,6 Sloan Parkway,93,5204,'s-Hertogenbosch,NL,51.6861013,5.2933198,dthoweshp@altervista.org
639,Gigabox,495 Columbus Point,81595,9204,Drachten,NL,53.0985458,6.0694,aclaydenhq@biglobe.ne.jp
640,Yabox,2152 Canary Alley,94617,3324,Dordrecht,NL,51.7783026,4.693265,eseedhr@mozilla.org
641,Layo,79 Brentwood Way,20,6509,Nijmegen,NL,51.8417492,5.8715134,cclingoehs@reddit.com
642,Avamm,50 Bultman Plaza,2045,5249,Rosmalen,NL,51.7286846,5.4008695,lbarkesht@hud.gov
643,Skipfire,7308 Gulseth Plaza,8,1974,IJmuiden,NL,52.4500648,4.5789114,tellicombehu@scientificamerican.com
644,Topicblab,401 Badeau Drive,761,6709,Wageningen,NL,51.9671737,5.6469613,arichardthv@surveymonkey.com
645,Skynoodle,29667 Clyde Gallagher Plaza,520,2019,Haarlem,NL,52.3811357,4.6419648,hcadanyhw@pen.io
646,Katz,985 Farwell Court,375,6539,Nijmegen,NL,51.8417492,5.8715134,slindemannhx@google.ru
647,Geba,7 Petterle Avenue,2426,1004,Amsterdam,NL,52.3612714,4.8827921,mhuothy@icq.com
648,Jamia,4 Swallow Street,11,6214,Maastricht,NL,50.8446443,5.6735818,bcellehz@ucsd.edu
649,Katz,60 Tomscot Hill,37461,5034,Tilburg,NL,51.5742615,5.0840393,lrobei0@is.gd
650,Wordware,34190 Lukken Alley,30437,1019,Amsterdam Binnenstad en Oostelijk Havengebied,NL,52.3770271,4.9192294,kgerrelti1@eventbrite.com
651,Skaboo,86419 Harbort Circle,2828,5349,Oss,NL,51.7610501,5.5510411,despinayi2@unesco.org
652,Rhybox,35 Westridge Trail,10,6709,Wageningen,NL,51.9671737,5.6469613,mdishmani3@clickbank.net
653,Yamia,16233 Independence Center,93074,7909,Hoogeveen,NL,52.7140571,6.4183299,mcumminei4@irs.gov
654,Tagfeed,03 Fremont Park,55658,1039,Amsterdam Noord west,NL,52.331282,4.93136,cramptoni5@addthis.com
655,Oyoloo,04 Oriole Drive,53790,7309,Apeldoorn,NL,52.2313764,5.9938487,jcreeri6@omniture.com
656,Aimbu,4538 Orin Drive,9,2019,Haarlem,NL,52.3811357,4.6419648,psnozzwelli7@wikia.com
657,Jaloo,5 Oriole Circle,809,7824,Emmen,NL,52.781689,6.9347107,kdicksi8@boston.com
658,Jetpulse,66728 Scofield Junction,77126,9674,Winschoten,NL,53.1250118,7.0114962,rmaccoveneyi9@tinyurl.com
659,Abata,63354 Esch Center,86,7524,Enschede,NL,52.2608863,6.9041984,cphizackarleyia@bizjournals.com
660,Browsebug,7595 Esker Terrace,1290,6519,Nijmegen,NL,51.8417492,5.8715134,erozenbaumib@japanpost.jp
661,Kayveo,06254 Eagan Circle,3,6814,Arnhem,NL,51.9877935,5.9030863,nwhereatic@cargocollective.com
662,Meejo,333 Maryland Street,16,3009,Rotterdam postbusnummers,NL,51.8796,4.5059,gdearsleyid@ibm.com
663,Livetube,4 Vidon Center,2786,1504,Zaandam,NL,52.435251,4.8501344,jmoxleyie@paypal.com
664,Wikizz,4989 Basil Hill,3,5034,Tilburg,NL,51.5742615,5.0840393,btwyningif@cafepress.com
665,Mudo,8795 Orin Parkway,813,5234,'s-Hertogenbosch,NL,51.7211356,5.2985109,sloftusig@nhs.uk
666,Tambee,61100 Milwaukee Alley,3,5009,Tilburg,NL,51.5742615,5.0840393,apowlingih@amazon.de
667,Mudo,3445 Clyde Gallagher Lane,41,4829,Breda,NL,52.3738284,4.8886159,hvealeii@merriam-webster.com
668,Meetz,71345 Declaration Park,2755,1964,Heemskerk,NL,52.5124538,4.6573346,flacknerij@home.pl
669,Izio,8 New Castle Court,74,2629,Delft,NL,51.9850245,4.3871967,rtrotterik@slate.com
670,Flashset,4951 Thompson Junction,760,5029,Tilburg,NL,51.5742615,5.0840393,kgordongilesil@youtu.be
671,Browsetype,8 Del Sol Park,52,3104,Schiedam postbusnummers,NL,51.883,4.3577,morteauim@telegraph.co.uk
672,Jabberstorm,5 Clove Street,903,2004,Haarlem,NL,52.3626877,4.6195236,londrusin@umn.edu
673,Tagcat,070 Milwaukee Avenue,7,5464,Veghel,NL,51.630114,5.5807167,skelsonio@nih.gov
674,Yodel,2 Express Place,44866,6714,Ede,NL,52.0442252,5.6463088,bpeidroip@g.co
675,Blogtag,6173 Schlimgen Street,00,5249,Rosmalen,NL,51.7286846,5.4008695,lbiggsiq@ning.com
676,Gabspot,51541 Graceland Avenue,49576,4334,Middelburg,NL,51.5101547,3.5898423,hthiemir@yale.edu
677,Wordpedia,800 Jenifer Plaza,2,5034,Tilburg,NL,51.5742615,5.0840393,ndabnoris@ox.ac.uk
678,Lazz,5 Trailsway Park,783,5249,Rosmalen,NL,51.7286846,5.4008695,tcoppockit@weather.com
679,Voonder,5 Thierer Hill,71,1304,Almere Stad,NL,52.3670698,5.2156739,ckeyworthiu@about.com
680,Twinder,25 Fairfield Park,654,1019,Amsterdam Binnenstad en Oostelijk Havengebied,NL,52.3770271,4.9192294,shebroniv@eepurl.com
681,Demizz,577 Hanson Pass,323,2004,Haarlem,NL,52.3626877,4.6195236,pofalloneiw@netlog.com
682,Rhyzio,2277 Evergreen Alley,2,5029,Tilburg,NL,51.5742615,5.0840393,vstarcksix@amazon.com
683,Tagpad,56 Troy Circle,3,6044,Roermond,NL,51.1806274,6.0187806,knutteyiy@histats.com
684,Fanoodle,025 Morning Way,1366,1304,Almere Stad,NL,52.3670698,5.2156739,rclemmettiz@cloudflare.com
685,Trunyx,0386 Calypso Circle,6,6834,Arnhem,NL,51.9560027,5.9280255,brawlinj0@ucsd.edu
686,Divanoodle,0973 Express Way,16047,2304,Leiden,NL,52.1513886,4.4982869,jemsliej1@pagesperso-orange.fr
687,Trudeo,38 American Ash Terrace,97071,3324,Dordrecht,NL,51.7783026,4.693265,skearnsj2@reverbnation.com
688,Skimia,75242 Doe Crossing Alley,59,5224,'s-Hertogenbosch,NL,51.6991519,5.2583334,kinskippj3@opensource.org
689,Meemm,49414 Atwood Circle,7,3224,Hellevoetsluis,NL,51.8281611,4.1481143,eisittj4@altervista.org
690,Tagfeed,26 Golden Leaf Terrace,8868,4534,Terneuzen,NL,52.359151,5.1999127,wknowlingj5@tuttocitta.it
691,Voonder,6 Dayton Pass,1,2614,Delft,NL,52.0095284,4.3342058,cfilyukovj6@so-net.ne.jp
692,Fivechat,19450 Fallview Court,3512,3449,Woerden,NL,52.0825062,4.8461786,smoormanj7@infoseek.co.jp
693,Edgewire,5137 Nova Trail,04,7804,Emmen,NL,52.7843212,6.8915145,dwaudbyj8@nasa.gov
694,Rhynyx,52306 Red Cloud Center,652,1404,Bussum,NL,52.2766397,5.162358,keastopj9@reddit.com
695,Skiptube,76 Fieldstone Crossing,1190,3324,Dordrecht,NL,51.7783026,4.693265,rwoodlandja@blogtalkradio.com
696,Jabbercube,2 Reinke Park,3978,4809,Breda,NL,52.3738284,4.8886159,csetchfieldjb@exblog.jp
697,Kwilith,2575 Shasta Plaza,8471,3530,Utrecht (stad),NL,52.08234,5.1175293,ydouchjc@blog.com
698,Bubblemix,813 Lighthouse Bay Alley,03,4819,Breda,NL,51.5749006,4.7680893,scorintonjd@whitehouse.gov
699,Cogidoo,5735 Larry Center,41,3104,Schiedam postbusnummers,NL,51.883,4.3577,nhousecroftje@nytimes.com
700,Gigazoom,19 Pawling Plaza,60269,3530,Utrecht (stad),NL,52.08234,5.1175293,cromeijf@businesswire.com
701,Blogtags,97 Stone Corner Lane,4,2624,Delft,NL,51.991495,4.3557381,ccloutejg@wordpress.com
702,Divanoodle,3 Village Green Place,57,1944,Beverwijk,NL,52.4927381,4.6490303,dtizzardjh@reverbnation.com
703,Gigashots,35 Badeau Road,9,4874,Etten-Leur,NL,51.5749669,4.6259996,agreeveji@wunderground.com
704,Yozio,197 Mayer Road,5,9704,Groningen,NL,53.2231057,6.5319506,mforderjj@jiathis.com
705,Flipopia,375 Corscot Pass,4726,7609,Almelo,NL,52.3323097,6.6372501,gantuschjk@wix.com
706,Fivebridge,5 East Junction,16,2284,Rijswijk,NL,52.0393765,4.3161176,atanzerjl@army.mil
707,Lajo,9144 Hauk Lane,65680,3844,Harderwijk,NL,52.3376849,5.6072982,csurridgejm@blogger.com
708,Eabox,4342 Erie Drive,02444,5214,'s-Hertogenbosch,NL,51.6861013,5.2933198,preddyhoffjn@phoca.cz
709,Oba,49 Welch Street,781,6404,Heerlen,NL,50.9212447,5.9651892,dcambridgejo@wordpress.com
710,Jaxworks,43 Fieldstone Avenue,4,5619,Eindhoven,NL,51.5244042,5.7576526,lgenesejp@flavors.me
711,Youtags,119 Sheridan Center,0,2989,Ridderkerk,NL,51.8530202,4.6175276,aashmorejq@bandcamp.com
712,Edgetag,1843 Bunting Circle,7,5629,Eindhoven,NL,51.490189,5.4711208,bkovnotjr@e-recht24.de
713,Tanoodle,94 Farwell Park,8,2629,Delft,NL,51.9850245,4.3871967,sgerardinjs@cdbaby.com
714,Trilia,8 Pennsylvania Pass,676,1360,Almere Haven,NL,52.842561,5.7187546,gcollensjt@i2i.jp
715,Yozio,12046 Miller Terrace,66676,3764,Soest,NL,52.1861944,5.3099089,lgoliglyju@dyndns.org
716,Eamia,97 Toban Pass,798,7509,Enschede,NL,52.211713,6.8954592,tchesonjv@cargocollective.com
717,Meedoo,4 Paget Point,4,7814,Emmen,NL,52.7881505,6.8700255,cmedewayjw@seesaa.net
718,Edgeclub,7 Carioca Drive,703,9730,Groningen,NL,53.2231057,6.5319506,edulingjx@msu.edu
719,Vidoo,2 Pepper Wood Drive,80675,2304,Leiden,NL,52.1513886,4.4982869,ekeddyjy@nba.com
720,Trudoo,07432 Aberg Pass,2,1079,Amsterdam Oud Zuid en Rivierenbuurt,NL,52.3444367,4.9091171,eloadsjz@cloudflare.com
721,Leexo,2777 Lakewood Gardens Drive,639,9204,Drachten,NL,53.0985458,6.0694,dinnotk0@simplemachines.org
722,Cogibox,967 Oakridge Crossing,3,2029,Haarlem,NL,52.3626877,4.6195236,smaccrachenk1@gmpg.org
723,Yotz,0 Vera Lane,8,8904,Leeuwarden,NL,53.2012042,5.8112912,igatfieldk2@google.pl
724,Leexo,97 Little Fleur Pass,7121,8044,Zwolle,NL,52.5470847,6.0237938,cstanyonk3@tiny.cc
725,Twinder,6555 Kipling Pass,0688,8019,Zwolle,NL,52.5019685,6.0684306,bmannakeek4@psu.edu
726,Izio,9088 Riverside Pass,7,2989,Ridderkerk,NL,51.8530202,4.6175276,lwinsburyk5@narod.ru
727,Tazz,8997 Waxwing Circle,9,1404,Bussum,NL,52.2766397,5.162358,tslaightk6@printfriendly.com
728,Yadel,5897 Sage Terrace,5730,2309,Leiden,NL,52.1513886,4.4982869,ccochranek7@howstuffworks.com
729,Babbleopia,224 Pankratz Park,56805,8229,Lelystad,NL,52.5077777,5.4757709,lbuiek8@webnode.com
730,Kamba,810 Oriole Terrace,32,6519,Nijmegen,NL,51.8417492,5.8715134,llocktonk9@umich.edu
731,Skimia,9 Grim Court,10,3319,Dordrecht,NL,51.792865,4.6999899,hwhieldonka@so-net.ne.jp
732,Pixope,6 Pawling Crossing,8,7534,Enschede,NL,52.2051033,6.9450818,aprestlandkb@google.de
733,Gabtune,4 Rowland Junction,0,9730,Groningen,NL,53.2231057,6.5319506,sstapelskc@vk.com
734,Brightdog,1109 Wayridge Street,23742,6044,Roermond,NL,51.1806274,6.0187806,temmineskd@lulu.com
735,Twiyo,17396 Judy Junction,2,3009,Rotterdam postbusnummers,NL,51.8796,4.5059,credmileke@yale.edu
736,Youfeed,08340 Beilfuss Plaza,6,2329,Leiden,NL,52.1513886,4.4982869,mmarquiskf@github.io
737,Quamba,34056 8th Place,0939,7509,Enschede,NL,52.211713,6.8954592,lmiddlebrookkg@state.tx.us
738,Jamia,7280 Buena Vista Circle,43,6844,Arnhem,NL,51.9489686,5.8564699,spardikh@usnews.com
739,Edgeblab,84 Algoma Road,31238,3309,Dordrecht,NL,51.7783026,4.693265,jmarchelloki@dailymail.co.uk
740,Eabox,529 Pankratz Junction,7,6224,Maastricht,NL,50.8493216,5.7114171,etiernankj@fastcompany.com
741,Yacero,0669 Cottonwood Trail,93707,2989,Ridderkerk,NL,51.8530202,4.6175276,gbraddenkk@yahoo.com
742,Tagcat,37518 Amoth Street,297,6844,Arnhem,NL,51.9489686,5.8564699,jlemmerkl@exblog.jp
743,Camido,656 Sage Trail,1877,7514,Enschede,NL,52.2254703,6.893632,mmcgeaghkm@meetup.com
744,Quatz,7346 Portage Hill,1,3844,Harderwijk,NL,52.3376849,5.6072982,fdellowkn@icio.us
745,Rhycero,05 Manley Lane,9,3224,Hellevoetsluis,NL,51.8281611,4.1481143,cmackonochieko@domainmarket.com
746,Agivu,550 Leroy Plaza,87,5684,Best,NL,51.513694,5.361629,acicccittikp@parallels.com
747,Bubblebox,2500 Hoffman Way,82854,6824,Arnhem,NL,51.9913857,5.9372731,mdignallkq@home.pl
748,Quinu,00 Vermont Center,0951,2578,Den Haag,NL,51.5190765,5.9202663,gclaraekr@parallels.com
749,Thoughtblab,87 Farwell Pass,3,7609,Almelo,NL,52.3323097,6.6372501,lhackforthks@yellowpages.com
750,Chatterbridge,54091 Delaware Avenue,00258,2004,Haarlem,NL,52.3626877,4.6195236,rhofkt@skyrock.com
751,Mynte,40 Schiller Lane,4,2629,Delft,NL,51.9850245,4.3871967,kgeerlingku@domainmarket.com
752,Dazzlesphere,609 Reindahl Place,9,8214,Lelystad,NL,52.5077777,5.4757709,apiddlehintonkv@nydailynews.com
753,Yombu,1 Vera Plaza,23,5609,Eindhoven,NL,51.5244042,5.7576526,wohoolahankw@ifeng.com
754,Layo,4 Dryden Lane,865,5914,Venlo,NL,51.3869562,6.1704266,atrevnakx@smugmug.com
755,Zoonoodle,379 Eggendart Circle,12,3805,Amersfoort,NL,52.1894953,5.3961917,amauchlenky@miitbeian.gov.cn
756,Feedspan,766 Little Fleur Crossing,2402,5214,'s-Hertogenbosch,NL,51.6861013,5.2933198,esnaddonkz@nba.com
757,Topicshots,00 Mandrake Junction,0,2495,Den Haag,NL,52.0563021,4.3610449,dkilfetherl0@huffingtonpost.com
758,Wordify,5 Steensland Junction,33561,5509,Veldhoven,NL,51.4299433,5.4072542,ljoanicl1@google.com
759,Realbuzz,13 Merrick Point,87,7909,Hoogeveen,NL,52.7140571,6.4183299,rkienll2@mozilla.com
760,Zoomlounge,2 Drewry Pass,478,2014,Haarlem,NL,52.3739053,4.615857,abairstowl3@engadget.com
761,Youspan,0 Bonner Hill,73796,4609,Bergen op Zoom,NL,51.5004971,4.2864439,kcranfieldl4@cyberchimps.com
762,Yoveo,1618 Debs Way,527,3004,Rotterdam postbusnummers,NL,51.8796,4.5059,waleixol5@google.it
763,Skinder,71994 Corry Road,9453,7804,Emmen,NL,52.7843212,6.8915145,jlarkworthyl6@yellowbook.com
764,Youspan,58527 Golf Place,04,3764,Soest,NL,52.1861944,5.3099089,bbigbyl7@amazon.co.jp
765,Avavee,6 Scofield Road,0,5464,Veghel,NL,51.630114,5.5807167,skidsonl8@opera.com
766,Wikizz,400 Lakewood Street,565,1019,Amsterdam Binnenstad en Oostelijk Havengebied,NL,52.3770271,4.9192294,twoolbrookl9@aol.com
767,Yodel,2410 Elgar Plaza,19690,8914,Leeuwarden,NL,53.2060963,5.7524581,lodeveyla@furl.net
768,Oyonder,947 Jenna Avenue,1307,6414,Heerlen,NL,50.9168212,5.9799297,mcreminslb@w3.org
769,Youopia,318 Warbler Junction,83,1974,IJmuiden,NL,52.4500648,4.5789114,cgovierlc@paginegialle.it
770,Topiczoom,23337 Comanche Junction,844,1804,Alkmaar,NL,52.6325793,4.7239896,arubinowitschld@simplemachines.org
771,Edgeclub,51879 Delaware Point,76215,5464,Veghel,NL,51.630114,5.5807167,jsneddonle@china.com.cn
772,Reallinks,41 Anniversary Court,086,6519,Nijmegen,NL,51.8417492,5.8715134,kbulfoylf@google.es
773,Oodoo,52208 Kenwood Trail,79,7824,Emmen,NL,52.781689,6.9347107,kscripturelg@blogs.com
774,Kwilith,66676 Pond Road,2,7814,Emmen,NL,52.7881505,6.8700255,jdawdrylh@sina.com.cn
775,Gigashots,6 Loeprich Crossing,86,6714,Ede,NL,52.0442252,5.6463088,kaxfordli@creativecommons.org
776,Abata,10880 Jana Terrace,980,2284,Rijswijk,NL,52.0393765,4.3161176,mborleylj@istockphoto.com
777,Ntags,7709 Surrey Alley,5769,4609,Bergen op Zoom,NL,51.5004971,4.2864439,grutleylk@edublogs.org
778,Zoomzone,394 Luster Terrace,320,7824,Emmen,NL,52.781689,6.9347107,nboylundll@booking.com
779,Thoughtbridge,10414 Stephen Court,55,7319,Apeldoorn,NL,52.2313764,5.9938487,dpridhamlm@google.com
780,Meejo,73564 Talisman Terrace,304,1049,Amsterdam Westpoort,NL,52.4000431,4.7642491,jlechmereln@seattletimes.com
781,Feedmix,7 Ronald Regan Parkway,0016,3530,Utrecht (stad),NL,52.08234,5.1175293,hbrimmanlo@livejournal.com
782,Blognation,4 Wayridge Place,89,1209,Hilversum,NL,52.2239735,5.1704277,akraftlp@digg.com
783,Dynabox,03 Artisan Point,55,1354,Almere Haven,NL,52.3382178,5.2172366,rbenzilq@ihg.com
784,Realcube,71 Rowland Alley,13,3224,Hellevoetsluis,NL,51.8281611,4.1481143,ecaudelllr@flickr.com
785,Youspan,3 Reinke Court,142,7309,Apeldoorn,NL,52.2313764,5.9938487,bwrintmorels@java.com
786,Dabshots,9665 Farmco Circle,4,6464,Kerkrade,NL,50.8777778,6.0781852,mhayesmanlt@unicef.org
787,Buzzbean,5 Toban Lane,16,3094,Rotterdam,NL,51.897904,4.473358,apesseltlu@cnet.com
788,Yodel,76987 Redwing Road,7465,1079,Amsterdam Oud Zuid en Rivierenbuurt,NL,52.3444367,4.9091171,fkilgrewlv@slate.com
789,Eidel,0 Kings Circle,25,5009,Tilburg,NL,51.5742615,5.0840393,rmulcahylw@paypal.com
790,Meevee,30 Northport Plaza,6,5924,Venlo,NL,51.3666314,6.1313871,cdreinilx@istockphoto.com
791,Zoomlounge,24 Sunfield Crossing,9248,2604,Delft,NL,51.9998397,4.3399875,mmannockly@wiley.com
792,Twitterlist,056 Spenser Street,6723,5644,Eindhoven,NL,51.4131558,5.4852794,dgiannilz@nih.gov
793,Voonix,22723 Lake View Lane,520,1094,Amsterdam-Oost,NL,52.3636588,4.9355226,pfoukxm0@fda.gov
794,Buzzster,63171 Ruskin Terrace,8994,5204,'s-Hertogenbosch,NL,51.6861013,5.2933198,ciwaszkiewiczm1@cocolog-nifty.com
795,Dynazzy,2050 Fordem Court,747,6714,Ede,NL,52.0442252,5.6463088,enottinghamm2@bloglovin.com
796,Youbridge,56 Burning Wood Junction,2,5349,Oss,NL,51.7610501,5.5510411,ttakkosm3@diigo.com
797,Oyoyo,9773 Bashford Trail,87,2334,Leiden,NL,52.1701159,4.4833003,kaspitalm4@comcast.net
798,Blognation,4 Mallory Court,1636,8039,Zwolle,NL,52.5112898,6.092908,gimbreym5@privacy.gov.au
799,Fivechat,05 2nd Drive,35,2495,Den Haag,NL,52.0563021,4.3610449,cdonohuem6@examiner.com
800,Riffpedia,062 Marquette Way,0178,1354,Almere Haven,NL,52.3382178,5.2172366,nhyndem7@seattletimes.com
801,Feedfire,7 Pennsylvania Way,4120,5034,Tilburg,NL,51.5742615,5.0840393,loxxm8@friendfeed.com
802,Yambee,78 Bellgrove Crossing,05903,6529,Nijmegen,NL,51.8417492,5.8715134,kgrederm9@nasa.gov
803,Trilia,228 Gerald Place,81501,8229,Lelystad,NL,52.5077777,5.4757709,htillma@ustream.tv
804,Fiveclub,14 Bowman Pass,3721,5629,Eindhoven,NL,51.490189,5.4711208,fwatkissmb@nytimes.com
805,BlogXS,673 Nova Alley,72497,6804,Arnhem,NL,51.9701203,5.9409472,acarnelleymc@cbc.ca
806,Realfire,86119 Montana Circle,655,3319,Dordrecht,NL,51.792865,4.6999899,sperfectmd@sohu.com
807,Linkbuzz,7 Eagan Place,33,2264,Leidschendam,NL,52.0895358,4.3956096,vglasgowme@howstuffworks.com
808,Wikizz,47 Logan Lane,54,4609,Bergen op Zoom,NL,51.5004971,4.2864439,vwatmoremf@cnn.com
809,Skimia,117 Shoshone Plaza,520,3844,Harderwijk,NL,52.3376849,5.6072982,vwallingmg@va.gov
810,Katz,2026 Anhalt Terrace,062,2274,Voorburg,NL,52.0726169,4.3505874,alotonmh@dedecms.com
811,Yata,28333 Rutledge Trail,9549,3009,Rotterdam postbusnummers,NL,51.8796,4.5059,cwharfmi@hostgator.com
812,Eamia,63 Hazelcrest Road,3759,3009,Rotterdam postbusnummers,NL,51.8796,4.5059,zcobsonmj@baidu.com
813,Dynabox,34 Nelson Center,94479,5044,Tilburg,NL,51.5731362,5.0314656,pdinanmk@paypal.com
814,Blogpad,4312 Mayer Parkway,38,8029,Zwolle,NL,52.5112898,6.092908,tbecerilml@360.cn
815,Buzzbean,642 Montana Trail,474,5904,Venlo,NL,51.3731898,6.1747875,slinnemanmm@newyorker.com
816,Flashspan,2 Clyde Gallagher Place,7,8214,Lelystad,NL,52.5077777,5.4757709,cfilipovmn@nytimes.com
817,Topicware,72 Lake View Park,45,3309,Dordrecht,NL,51.7783026,4.693265,vspowartmo@wiley.com
818,Roomm,982 Jackson Drive,71,6709,Wageningen,NL,51.9671737,5.6469613,mhanwrightmp@wufoo.com
819,Photobug,40666 Darwin Park,81588,6844,Arnhem,NL,51.9489686,5.8564699,pantonellinimq@paypal.com
820,Linkbuzz,2788 Fair Oaks Hill,4,2989,Ridderkerk,NL,51.8530202,4.6175276,jliffeymr@tinypic.com
821,Abatz,1434 Cody Lane,4362,2004,Haarlem,NL,52.3626877,4.6195236,msaltsbergerms@apple.com
822,Plambee,97 Cody Terrace,9,5019,Tilburg,NL,51.5742615,5.0840393,apetranmt@g.co
823,Latz,4 Steensland Avenue,866,5234,'s-Hertogenbosch,NL,51.7211356,5.2985109,tskillmanmu@ihg.com
824,Trudeo,4033 Nancy Junction,65,2989,Ridderkerk,NL,51.8530202,4.6175276,vverzeymv@parallels.com
825,Linktype,527 Mesta Circle,416,7804,Emmen,NL,52.7843212,6.8915145,rmatterdacemw@51.la
826,Kwinu,65 Carpenter Terrace,80,3560,Utrecht (stad),NL,52.08234,5.1175293,dgrafhammx@mac.com
827,Fadeo,278 Reinke Junction,31,6904,Zevenaar,NL,51.9321156,6.0581861,khurseymy@slashdot.org
828,Rhyloo,2584 Cardinal Place,51,1094,Amsterdam-Oost,NL,52.3636588,4.9355226,tsolemz@nps.gov
829,Mydo,23458 Huxley Drive,94,6214,Maastricht,NL,50.8446443,5.6735818,kduckern0@1688.com
830,Youbridge,65251 Tennessee Circle,8,5029,Tilburg,NL,51.5742615,5.0840393,yflowithn1@gov.uk
831,Buzzdog,5 Fordem Way,845,7554,Hengelo,NL,52.222516,6.7371965,abecceron2@chron.com
832,Tekfly,56588 Katie Street,19406,1079,Amsterdam Oud Zuid en Rivierenbuurt,NL,52.3444367,4.9091171,dnorringtonn3@pinterest.com
833,Buzzshare,88 Petterle Center,97,3550,Utrecht (stad),NL,52.08234,5.1175293,rsidebottonn4@mapy.cz
834,Twinte,7 Cherokee Center,89,2304,Leiden,NL,52.1513886,4.4982869,caushern5@prnewswire.com
835,Yakidoo,3196 Rigney Circle,68,5044,Tilburg,NL,51.5731362,5.0314656,wlynchn6@discuz.net
836,DabZ,736 5th Alley,7999,1049,Amsterdam Westpoort,NL,52.4000431,4.7642491,mhanniganen7@purevolume.com
837,Yombu,28886 Thierer Alley,35947,1404,Bussum,NL,52.2766397,5.162358,amclukien8@zdnet.com
838,Myworks,25 Harper Trail,99,3009,Rotterdam postbusnummers,NL,51.8796,4.5059,drudsdelln9@ameblo.jp
839,Jaxworks,42130 Nova Street,8,8029,Zwolle,NL,52.5112898,6.092908,ephilipeauxna@youku.com
840,Thoughtstorm,23 Spohn Court,43,4534,Terneuzen,NL,52.359151,5.1999127,nglassonnb@csmonitor.com
841,Dynazzy,440 Amoth Terrace,2866,8304,Emmeloord,NL,52.6863286,5.7569797,rfriernc@imdb.com
842,Oozz,2 Manufacturers Place,7,1049,Amsterdam Westpoort,NL,52.4000431,4.7642491,cattwillnd@chron.com
843,Digitube,05 Kings Point,75435,6904,Zevenaar,NL,51.9321156,6.0581861,pfrondtne@walmart.com
844,Quinu,0 Sugar Trail,514,1354,Almere Haven,NL,52.3382178,5.2172366,autridgenf@squarespace.com
845,Camimbo,270 Meadow Vale Hill,57,3324,Dordrecht,NL,51.7783026,4.693265,alambertzng@t-online.de
846,Skaboo,6 Toban Lane,9,8204,Lelystad,NL,52.5077777,5.4757709,wfancetnh@studiopress.com
847,Browsetype,93351 Green Way,731,5609,Eindhoven,NL,51.5244042,5.7576526,lmycroftni@wufoo.com
848,Viva,2 Russell Street,28270,7604,Almelo,NL,52.3517146,6.624795,nclitsomenj@seesaa.net
849,Kazu,71373 Clove Lane,5,8304,Emmeloord,NL,52.6863286,5.7569797,emuddicliffenk@constantcontact.com
850,Fatz,8562 Drewry Junction,9,8039,Zwolle,NL,52.5112898,6.092908,njandaknl@dmoz.org
851,Photobug,138 Fallview Terrace,54684,7804,Emmen,NL,52.7843212,6.8915145,emabennm@rakuten.co.jp
852,Dazzlesphere,4 Blackbird Terrace,4,8934,Leeuwarden,NL,53.1913133,5.8065627,btenantnn@jalbum.net
853,Camido,4443 Monument Junction,3884,4874,Etten-Leur,NL,51.5749669,4.6259996,sduigenanno@is.gd
854,Brightbean,6 Paget Terrace,398,1304,Almere Stad,NL,52.3670698,5.2156739,snealenp@ezinearticles.com
855,Blogtag,87 Killdeer Court,576,2274,Voorburg,NL,52.0726169,4.3505874,blurrimannq@smh.com.au
856,Minyx,6226 Oxford Point,30596,1360,Almere Haven,NL,52.842561,5.7187546,zpointinnr@squidoo.com
857,InnoZ,2993 Artisan Terrace,36,1360,Almere Haven,NL,52.842561,5.7187546,hmcgallns@squarespace.com
858,Tagopia,7 Orin Parkway,29,6824,Arnhem,NL,51.9913857,5.9372731,nfriedanknt@purevolume.com
859,Abata,1 Menomonie Road,197,5204,'s-Hertogenbosch,NL,51.6861013,5.2933198,gkuhnnu@phoca.cz
860,Layo,0 Havey Court,77,5249,Rosmalen,NL,51.7286846,5.4008695,sroenv@last.fm
861,Feedfish,53 Harbort Trail,83605,7824,Emmen,NL,52.781689,6.9347107,eholttomnw@blinklist.com
862,Tazzy,60159 Russell Center,87,3224,Hellevoetsluis,NL,51.8281611,4.1481143,jkondratenyanx@devhub.com
863,Rhynyx,8663 Blue Bill Park Junction,9,5019,Tilburg,NL,51.5742615,5.0840393,wsymmonsny@marketwatch.com
864,Chatterpoint,05 Logan Street,801,5644,Eindhoven,NL,51.4131558,5.4852794,bcrosionz@artisteer.com
865,Dablist,990 Sutteridge Hill,45,1509,Zaandam,NL,52.4709411,4.826445,lmagoverno0@ovh.net
866,Rhynyx,4 Dryden Street,1,6904,Zevenaar,NL,51.9321156,6.0581861,wmeekingo1@biblegateway.com
867,Oozz,07 Trailsway Place,86535,2284,Rijswijk,NL,52.0393765,4.3161176,srassello2@themeforest.net
868,Realmix,6485 Rowland Terrace,15071,5244,Rosmalen,NL,51.7153134,5.397367,gmcneisho3@chronoengine.com
869,Skynoodle,099 Ludington Parkway,28,7804,Emmen,NL,52.7843212,6.8915145,pboyno4@europa.eu
870,Edgeify,4010 Grayhawk Alley,72519,3709,Zeist,NL,52.066952,5.2407431,aflecknesso5@geocities.jp
871,Trilia,5 Londonderry Plaza,71054,2274,Voorburg,NL,52.0726169,4.3505874,cblanceo6@hhs.gov
872,Einti,00 Mayfield Avenue,2619,5509,Veldhoven,NL,51.4299433,5.4072542,lgenikeo7@istockphoto.com
873,Jabbercube,459 Leroy Drive,60700,2614,Delft,NL,52.0095284,4.3342058,fambrosinio8@unc.edu
874,Devify,95053 Mallory Lane,2,3560,Utrecht (stad),NL,52.08234,5.1175293,cfullaloveo9@europa.eu
875,Skimia,34 Gale Avenue,0,7824,Emmen,NL,52.781689,6.9347107,egillesonoa@reddit.com
876,Layo,29 Luster Plaza,8044,2624,Delft,NL,51.991495,4.3557381,ufairholmob@issuu.com
877,Chatterpoint,661 Walton Avenue,48900,7004,Doetinchem,NL,51.9500617,6.3130893,pkennefordoc@usa.gov
878,Eabox,09132 Summerview Alley,6326,2604,Delft,NL,51.9998397,4.3399875,fvanderplasod@shinystat.com
879,Voolia,49 Milwaukee Road,0,2284,Rijswijk,NL,52.0393765,4.3161176,dchurmoe@oracle.com
880,Katz,461 Schiller Drive,4500,1509,Zaandam,NL,52.4709411,4.826445,abardellof@ihg.com
881,Wordify,73 Waxwing Road,63,1504,Zaandam,NL,52.435251,4.8501344,mbarszczewskiog@qq.com
882,BlogXS,14521 Sunbrook Drive,1031,4839,Breda,NL,51.5829309,4.7066416,acordetoh@w3.org
883,Brightdog,8657 Anniversary Way,45,8044,Zwolle,NL,52.5470847,6.0237938,idunkertonoi@drupal.org
884,Jetpulse,27 Cordelia Park,23,3224,Hellevoetsluis,NL,51.8281611,4.1481143,mblaschekoj@illinois.edu
885,Flipbug,917 Northwestern Road,72,2304,Leiden,NL,52.1513886,4.4982869,dwillcocksok@youtube.com
886,Babbleset,3 Holmberg Trail,2,7604,Almelo,NL,52.3517146,6.624795,rgaenorol@live.com
887,Photolist,0553 5th Way,5,5249,Rosmalen,NL,51.7286846,5.4008695,lspurmanom@nsw.gov.au
888,Devify,24040 Crest Line Road,6985,5609,Eindhoven,NL,51.5244042,5.7576526,fnealeyon@delicious.com
889,Photobean,7463 Northland Crossing,82,3104,Schiedam postbusnummers,NL,51.883,4.3577,lhartingtonoo@marketwatch.com
890,Livetube,5213 Loeprich Street,9929,3550,Utrecht (stad),NL,52.08234,5.1175293,rdefraineop@oaic.gov.au
891,Meevee,54708 Grasskamp Pass,74,7824,Emmen,NL,52.781689,6.9347107,wharradenceoq@yelp.com
892,Realblab,4988 Independence Trail,8,1209,Hilversum,NL,52.2239735,5.1704277,mconquestor@deviantart.com
893,Youtags,148 Gale Street,3,2924,Krimpen aan den IJssel,NL,51.924574,4.616419,gpitkaithlyos@163.com
894,Zazio,5292 Pearson Pass,72428,3009,Rotterdam postbusnummers,NL,51.8796,4.5059,ewhitloeot@businessinsider.com
895,Rhynoodle,57068 Kings Crossing,0944,6804,Arnhem,NL,51.9701203,5.9409472,calbertiou@who.int
896,Meejo,9 Di Loreto Avenue,2,7604,Almelo,NL,52.3517146,6.624795,bswatonov@whitehouse.gov
897,Dablist,4 Texas Point,74004,2720,Zoetermeer,NL,52.0625106,4.4911369,llemmeow@altervista.org
898,Kwimbee,65 Fremont Road,5357,3844,Harderwijk,NL,52.3376849,5.6072982,rsantoox@google.ru
899,Photobean,87912 Loomis Way,18,3109,Schiedam postbusnummers,NL,51.883,4.3577,dgirvanoy@mozilla.org
900,Avamm,26 Sutherland Alley,40,2264,Leidschendam,NL,52.0895358,4.3956096,rniscooz@addtoany.com
901,Fiveclub,03 Eagle Crest Junction,32,1504,Zaandam,NL,52.435251,4.8501344,mpulestonp0@rambler.ru
902,Edgeify,042 Crescent Oaks Hill,342,8264,Kampen (Overijssel),NL,52.5577627,5.8915635,hpochinp1@foxnews.com
903,Youbridge,479 Main Avenue,091,1209,Hilversum,NL,52.2239735,5.1704277,mchaddp2@domainmarket.com
904,Dabshots,284 Thierer Place,5,5664,Geldrop,NL,51.4174812,5.5610329,jgardenp3@deliciousdays.com
905,Snaptags,5 Eggendart Park,654,7524,Enschede,NL,52.2608863,6.9041984,dedgesonp4@go.com
906,Skaboo,522 Acker Lane,3,1079,Amsterdam Oud Zuid en Rivierenbuurt,NL,52.3444367,4.9091171,sbarizeretp5@ebay.co.uk
907,Devbug,0 Bunting Pass,8,3319,Dordrecht,NL,51.792865,4.6999899,zleckyp6@census.gov
908,Divanoodle,25627 Lake View Lane,67556,8214,Lelystad,NL,52.5077777,5.4757709,jhastelowp7@google.co.jp
909,Blognation,43097 Westerfield Hill,9038,2304,Leiden,NL,52.1513886,4.4982869,sfrancescuzzip8@mysql.com
910,Centimia,53750 Lakeland Pass,3715,5104,Dongen,NL,51.6271163,4.9413027,hswaloughp9@epa.gov
911,Shufflebeat,71 Lunder Parkway,640,7804,Emmen,NL,52.7843212,6.8915145,igirardengopa@google.ca
912,Browseblab,59586 Cordelia Court,29898,7329,Apeldoorn,NL,52.1972058,5.996755,kcrossfieldpb@php.net
913,Browsezoom,758 Muir Junction,8368,5204,'s-Hertogenbosch,NL,51.6861013,5.2933198,celsmorepc@ucsd.edu
914,Minyx,0 Lerdahl Circle,035,5104,Dongen,NL,51.6271163,4.9413027,bcorneliuspd@nba.com
915,Jabbercube,3500 Nancy Circle,4,2629,Delft,NL,51.9850245,4.3871967,clemmenpe@google.de
916,Topiczoom,98 Mandrake Plaza,96,4534,Terneuzen,NL,52.359151,5.1999127,ftargepf@xinhuanet.com
917,Mydo,0264 Armistice Center,9450,1504,Zaandam,NL,52.435251,4.8501344,kbardillpg@jigsy.com
918,Voolia,7 Hagan Trail,5761,4384,Vlissingen,NL,51.4588944,3.5455371,dbeineph@hostgator.com
919,Twiyo,08226 Oneill Junction,6040,6804,Arnhem,NL,51.9701203,5.9409472,malvarezpi@economist.com
920,Shufflester,1982 Manley Circle,3,6414,Heerlen,NL,50.9168212,5.9799297,ecarrickpj@bloglovin.com
921,Browsecat,678 Barnett Street,24707,3449,Woerden,NL,52.0825062,4.8461786,rbartolomeupk@mapy.cz
922,Quaxo,27 Armistice Junction,65,6714,Ede,NL,52.0442252,5.6463088,mcollisspl@forbes.com
923,Mymm,237 Florence Avenue,04221,2989,Ridderkerk,NL,51.8530202,4.6175276,alockiepm@goodreads.com
924,Centimia,11044 Del Mar Park,7,6709,Wageningen,NL,51.9671737,5.6469613,hlightbodypn@engadget.com
925,Jabbersphere,62155 Raven Place,9,2409,Alphen aan den Rijn,NL,52.1024489,4.6477615,dkopacekpo@devhub.com
926,Aimbu,196 Blackbird Place,10,6414,Heerlen,NL,50.9168212,5.9799297,mfigurskipp@dailymotion.com
927,Devshare,33727 Emmet Circle,72,7824,Emmen,NL,52.781689,6.9347107,jdibaudipq@whitehouse.gov
928,Dablist,29 Spenser Park,6,1974,IJmuiden,NL,52.4500648,4.5789114,bbeveragepr@goo.ne.jp
929,Gevee,05798 Golf View Plaza,02807,5244,Rosmalen,NL,51.7153134,5.397367,dmarklps@sbwire.com
930,Devpoint,70 Fieldstone Trail,4,6714,Ede,NL,52.0442252,5.6463088,dwahnerpt@delicious.com
931,Quimba,36747 Loomis Street,3,8924,Leeuwarden,NL,53.2065166,5.8271439,lmcelorypu@istockphoto.com
932,Blognation,7161 Alpine Center,66962,5244,Rosmalen,NL,51.7153134,5.397367,mriddepv@artisteer.com
933,Topicstorm,0181 Pond Parkway,04687,3104,Schiedam postbusnummers,NL,51.883,4.3577,jpiddingtonpw@typepad.com
934,Oodoo,84916 Stuart Place,9,2989,Ridderkerk,NL,51.8530202,4.6175276,ssnaselpx@psu.edu
935,Feedbug,8026 Hovde Road,7,3094,Rotterdam,NL,51.897904,4.473358,zkiebespy@1688.com
936,Chatterpoint,7800 Everett Terrace,559,5144,Waalwijk,NL,51.6773339,5.0633742,lbirtpz@mapquest.com
937,Dabvine,003 Bunker Hill Plaza,7314,2629,Delft,NL,51.9850245,4.3871967,srooteq0@de.vu
938,Wikizz,9 Union Plaza,82548,4829,Breda,NL,52.3738284,4.8886159,bclaigeq1@ucsd.edu
939,Photolist,7305 Lakewood Avenue,11870,1019,Amsterdam Binnenstad en Oostelijk Havengebied,NL,52.3770271,4.9192294,kforwardq2@virginia.edu
940,Ntags,05 Comanche Place,1,6709,Wageningen,NL,51.9671737,5.6469613,hbernardouxq3@whitehouse.gov
941,Eazzy,0 Birchwood Court,92719,5009,Tilburg,NL,51.5742615,5.0840393,aarensq4@sfgate.com
942,Meemm,8656 Algoma Terrace,53,4384,Vlissingen,NL,51.4588944,3.5455371,zconibearq5@zimbio.com
943,Snaptags,45300 Grim Court,4,2334,Leiden,NL,52.1701159,4.4833003,ebyffordq6@hp.com
944,Jatri,5 Golden Leaf Alley,56,5924,Venlo,NL,51.3666314,6.1313871,ereubelq7@wikispaces.com
945,Realcube,3 Miller Avenue,3822,1079,Amsterdam Oud Zuid en Rivierenbuurt,NL,52.3444367,4.9091171,tshilletoq8@youku.com
946,Edgewire,197 Dapin Alley,78,2495,Den Haag,NL,52.0563021,4.3610449,ybilboroughq9@umich.edu
947,Linkbridge,494 Gateway Terrace,340,1079,Amsterdam Oud Zuid en Rivierenbuurt,NL,52.3444367,4.9091171,sdunbarqa@ow.ly
948,Wordpedia,157 Jay Lane,5,7814,Emmen,NL,52.7881505,6.8700255,troslingqb@japanpost.jp
949,Trudeo,546 Portage Place,69,9704,Groningen,NL,53.2231057,6.5319506,jizhakqc@trellian.com
950,Riffwire,07660 Maryland Way,26811,7329,Apeldoorn,NL,52.1972058,5.996755,ctweedellqd@yellowpages.com
951,Plambee,9674 Becker Circle,6,7409,Deventer,NL,52.2424706,6.2281859,dridgersqe@stanford.edu
952,Fadeo,18345 Farragut Pass,213,3994,Houten,NL,52.0296117,5.1841395,kmcgonnellqf@answers.com
953,Blogpad,557 Coleman Way,7163,8924,Leeuwarden,NL,53.2065166,5.8271439,djancaqg@google.co.uk
954,Jabberbean,40595 Roxbury Court,5389,1504,Zaandam,NL,52.435251,4.8501344,tarrighiqh@fastcompany.com
955,Cogidoo,9359 Westridge Trail,33896,1004,Amsterdam,NL,52.3612714,4.8827921,jsnazleqi@craigslist.org
956,Feednation,18111 Fairview Pass,3,7909,Hoogeveen,NL,52.7140571,6.4183299,keckqj@deviantart.com
957,Oodoo,7321 Tennyson Road,38,4384,Vlissingen,NL,51.4588944,3.5455371,qculhamqk@smugmug.com
958,Devbug,225 Bluejay Pass,5791,2329,Leiden,NL,52.1513886,4.4982869,rchicottiql@biglobe.ne.jp
959,LiveZ,37 Charing Cross Trail,59646,4839,Breda,NL,51.5829309,4.7066416,srawleqm@google.de
960,Quinu,29333 Kenwood Circle,622,6844,Arnhem,NL,51.9489686,5.8564699,ksurgenorqn@simplemachines.org
961,Meedoo,30 8th Parkway,32873,8264,Kampen (Overijssel),NL,52.5577627,5.8915635,jlarhamqo@oaic.gov.au
962,Gabvine,387 Mitchell Trail,694,9704,Groningen,NL,53.2231057,6.5319506,joswellqp@fema.gov
963,Linkbuzz,6 Dixon Circle,10425,6414,Heerlen,NL,50.9168212,5.9799297,vmunningsqq@bravesites.com
964,Feedmix,6102 John Wall Park,994,7319,Apeldoorn,NL,52.2313764,5.9938487,agianasiqr@cafepress.com
965,Leenti,45 Sutherland Place,9095,1049,Amsterdam Westpoort,NL,52.4000431,4.7642491,mboddymeadqs@ifeng.com
966,Nlounge,49 Debra Trail,55,7534,Enschede,NL,52.2051033,6.9450818,apalerqt@google.de
967,Innotype,1268 Fuller Street,4,8304,Emmeloord,NL,52.6863286,5.7569797,dbrychanqu@army.mil
968,Eidel,2288 Jana Plaza,7871,3449,Woerden,NL,52.0825062,4.8461786,aartingstallqv@tripod.com
969,Skinix,42714 Thierer Avenue,8091,7909,Hoogeveen,NL,52.7140571,6.4183299,wravenscraftqw@oakley.com
970,Twitterlist,38598 Jackson Point,59063,1039,Amsterdam Noord west,NL,52.331282,4.93136,lduffyqx@pcworld.com
971,Browsedrive,46352 Basil Way,496,5609,Eindhoven,NL,51.5244042,5.7576526,cyegorshinqy@fema.gov
972,Lazzy,318 Dixon Pass,9950,5509,Veldhoven,NL,51.4299433,5.4072542,rdrowsfieldqz@mapquest.com
973,Tazzy,08545 Merry Place,950,7824,Emmen,NL,52.781689,6.9347107,ekuberar0@tinypic.com
974,Gabspot,675 Hollow Ridge Way,46171,1039,Amsterdam Noord west,NL,52.331282,4.93136,cfryettr1@wired.com
975,Quaxo,4234 La Follette Court,09,3560,Utrecht (stad),NL,52.08234,5.1175293,afouldesr2@pcworld.com
976,Fivebridge,780 Coolidge Way,000,5609,Eindhoven,NL,51.5244042,5.7576526,vpruer3@sciencedirect.com
977,Flipopia,5085 Eagle Crest Terrace,15988,6204,Maastricht,NL,50.8269051,5.7198625,mstaintonr4@examiner.com
978,Vitz,493 Oxford Point,82,7534,Enschede,NL,52.2051033,6.9450818,flyler5@sun.com
979,Quaxo,6611 Mcguire Place,430,2409,Alphen aan den Rijn,NL,52.1024489,4.6477615,jcristofolinir6@nature.com
980,Brightdog,28342 Reinke Trail,2375,6709,Wageningen,NL,51.9671737,5.6469613,pklempker7@nature.com
981,Zoonder,20195 Drewry Park,95,3009,Rotterdam postbusnummers,NL,51.8796,4.5059,dkraftr8@1und1.de
982,Ntag,390 Northwestern Pass,42837,8039,Zwolle,NL,52.5112898,6.092908,tdinsaler9@domainmarket.com
983,Roodel,046 Del Mar Circle,163,3109,Schiedam postbusnummers,NL,51.883,4.3577,arosenstielra@furl.net
984,Thoughtmix,2849 Meadow Vale Way,3513,6224,Maastricht,NL,50.8493216,5.7114171,mnazairrb@quantcast.com
985,Bluejam,4525 Oak Pass,61,2334,Leiden,NL,52.1701159,4.4833003,mscottirc@miitbeian.gov.cn
986,Photofeed,51 Stang Court,5,3994,Houten,NL,52.0296117,5.1841395,stattertonrd@adobe.com
987,Jaloo,87 Linden Lane,24763,4619,Bergen op Zoom,NL,51.5004971,4.2864439,tduboisre@google.com.br
988,Dabjam,1 Oak Alley,4967,5234,'s-Hertogenbosch,NL,51.7211356,5.2985109,ecornillirf@hugedomains.com
989,Wordpedia,5964 Dennis Hill,7853,1944,Beverwijk,NL,52.4927381,4.6490303,dskeathrg@shutterfly.com
990,Kanoodle,405 Merrick Pass,924,6709,Wageningen,NL,51.9671737,5.6469613,wlebrumrh@bloglines.com
991,Dabshots,70930 Laurel Trail,222,8024,Zwolle,NL,52.5168356,6.1433403,groggerri@statcounter.com
992,Skyvu,815 Maywood Terrace,43,1094,Amsterdam-Oost,NL,52.3636588,4.9355226,hrowthornerj@soup.io
993,Twitterbeat,762 Montana Parkway,6,1039,Amsterdam Noord west,NL,52.331282,4.93136,ftoughrk@slideshare.net
994,Abatz,56535 Alpine Point,30402,6844,Arnhem,NL,51.9489686,5.8564699,adeehanrl@nifty.com
995,Twiyo,1 Elmside Way,76,6539,Nijmegen,NL,51.8417492,5.8715134,rmaccurlyerm@jimdo.com
996,Wordtune,76 Fairview Drive,3620,7604,Almelo,NL,52.3517146,6.624795,redgleyrn@paypal.com
997,Tagcat,148 Eagan Road,87481,5044,Tilburg,NL,51.5731362,5.0314656,eangersteinro@newyorker.com
998,Gabvine,7084 American Ash Terrace,48,2720,Zoetermeer,NL,52.0625106,4.4911369,tmcalpinrp@blinklist.com
999,Omba,8 Stone Corner Avenue,334,3094,Rotterdam,NL,51.897904,4.473358,btuerrq@fastcompany.com
1000,Zoonder,6565 Colorado Alley,92,6464,Kerkrade,NL,50.8777778,6.0781852,ddragoerr@rakuten.co.jp
